{
  "type": "FeatureCollection",
  "bbox": [
    77.6221848,
    12.8930549,
    77.662096,
    12.9200778
  ],
  "features": [
    {
      "type": "Feature",
      "bbox": [
        77.6221848,
        12.8930549,
        77.662096,
        12.9200778
      ],
      "properties": {
        "name": "HSR Layout",
        "source": "Google Maps selected-place raster outline",
        "zoom": 14,
        "vertices": 153,
        "approx_area_km2": 1.462,
        "closed_ring": false,
        "warning": "Reverse-traced from raster tiles; accuracy is limited by Web Mercator pixel resolution at the captured zoom."
      },
      "geometry": {
        "type": "Polygon",
        "coordinates": [
          [
            [
              77.6222706,
              12.917819
            ],
            [
              77.6221848,
              12.9170661
            ],
            [
              77.6234722,
              12.91464
            ],
            [
              77.625618,
              12.9111263
            ],
            [
              77.6264763,
              12.9106243
            ],
            [
              77.6263905,
              12.9100387
            ],
            [
              77.6270771,
              12.9088674
            ],
            [
              77.6275063,
              12.9084491
            ],
            [
              77.6277637,
              12.9084491
            ],
            [
              77.6281929,
              12.9081144
            ],
            [
              77.6281071,
              12.9076125
            ],
            [
              77.6285362,
              12.9070268
            ],
            [
              77.6290512,
              12.9069432
            ],
            [
              77.6288795,
              12.9061902
            ],
            [
              77.6292229,
              12.9057719
            ],
            [
              77.6300812,
              12.9056882
            ],
            [
              77.631712,
              12.9060229
            ],
            [
              77.6329136,
              12.9059392
            ],
            [
              77.6351452,
              12.9066922
            ],
            [
              77.6354027,
              12.9064412
            ],
            [
              77.6360893,
              12.9063575
            ],
            [
              77.6373768,
              12.9055209
            ],
            [
              77.6378918,
              12.9054373
            ],
            [
              77.6380634,
              12.9052699
            ],
            [
              77.6379776,
              12.9035967
            ],
            [
              77.6377201,
              12.903262
            ],
            [
              77.6380634,
              12.9011704
            ],
            [
              77.6383209,
              12.9005848
            ],
            [
              77.6386642,
              12.9002501
            ],
            [
              77.6408958,
              12.9000828
            ],
            [
              77.6420116,
              12.8998318
            ],
            [
              77.6429558,
              12.8998318
            ],
            [
              77.6433849,
              12.8999991
            ],
            [
              77.6452732,
              12.8995808
            ],
            [
              77.6462173,
              12.8998318
            ],
            [
              77.646904,
              12.8989115
            ],
            [
              77.6475048,
              12.8986605
            ],
            [
              77.6481056,
              12.8988278
            ],
            [
              77.6485348,
              12.8987442
            ],
            [
              77.6493073,
              12.8989952
            ],
            [
              77.6499081,
              12.8996645
            ],
            [
              77.6499939,
              12.9009194
            ],
            [
              77.6502514,
              12.9010868
            ],
            [
              77.650938,
              12.9005848
            ],
            [
              77.652483,
              12.9001665
            ],
            [
              77.6530838,
              12.8998318
            ],
            [
              77.6532555,
              12.8994971
            ],
            [
              77.6529121,
              12.8982422
            ],
            [
              77.6525688,
              12.8976565
            ],
            [
              77.652483,
              12.8968199
            ],
            [
              77.651968,
              12.8958159
            ],
            [
              77.6517963,
              12.8949792
            ],
            [
              77.6518822,
              12.8943099
            ],
            [
              77.6522255,
              12.8939752
            ],
            [
              77.6531696,
              12.8939752
            ],
            [
              77.6541138,
              12.8937242
            ],
            [
              77.6548862,
              12.8933059
            ],
            [
              77.6560879,
              12.8930549
            ],
            [
              77.6572037,
              12.8933059
            ],
            [
              77.6578045,
              12.8938916
            ],
            [
              77.6590919,
              12.8969035
            ],
            [
              77.6589203,
              12.8981585
            ],
            [
              77.6596069,
              12.8987442
            ],
            [
              77.6599503,
              12.8995808
            ],
            [
              77.6604652,
              12.9000828
            ],
            [
              77.6611519,
              12.9016724
            ],
            [
              77.662096,
              12.903011
            ],
            [
              77.662096,
              12.9033457
            ],
            [
              77.6616669,
              12.9038477
            ],
            [
              77.6609802,
              12.9038477
            ],
            [
              77.6600361,
              12.9028437
            ],
            [
              77.6591778,
              12.9009194
            ],
            [
              77.6587486,
              12.9005011
            ],
            [
              77.6584911,
              12.8999155
            ],
            [
              77.6578045,
              12.8993298
            ],
            [
              77.6573753,
              12.8982422
            ],
            [
              77.657547,
              12.8971545
            ],
            [
              77.6566029,
              12.8948119
            ],
            [
              77.6563454,
              12.8945609
            ],
            [
              77.6559162,
              12.8945609
            ],
            [
              77.6544571,
              12.8951465
            ],
            [
              77.6536846,
              12.8952302
            ],
            [
              77.6535988,
              12.8954812
            ],
            [
              77.6539421,
              12.8963179
            ],
            [
              77.6541138,
              12.8978238
            ],
            [
              77.6544571,
              12.8983258
            ],
            [
              77.6544571,
              12.8989952
            ],
            [
              77.6548004,
              12.8994971
            ],
            [
              77.6547146,
              12.9005011
            ],
            [
              77.6536846,
              12.9012541
            ],
            [
              77.6513672,
              12.9020907
            ],
            [
              77.6508522,
              12.9025927
            ],
            [
              77.6505089,
              12.9026764
            ],
            [
              77.6491356,
              12.9022581
            ],
            [
              77.6486206,
              12.9018397
            ],
            [
              77.6484489,
              12.9003338
            ],
            [
              77.6482773,
              12.9001665
            ],
            [
              77.647934,
              12.9001665
            ],
            [
              77.646904,
              12.9013378
            ],
            [
              77.6465607,
              12.9014214
            ],
            [
              77.6456165,
              12.9013378
            ],
            [
              77.6450157,
              12.9010868
            ],
            [
              77.6435566,
              12.9014214
            ],
            [
              77.6421833,
              12.9012541
            ],
            [
              77.6410675,
              12.9015887
            ],
            [
              77.6396084,
              12.9016724
            ],
            [
              77.6392651,
              12.9030947
            ],
            [
              77.6394367,
              12.9033457
            ],
            [
              77.6394367,
              12.904517
            ],
            [
              77.6396942,
              12.9057719
            ],
            [
              77.6392651,
              12.9064412
            ],
            [
              77.6376343,
              12.9071105
            ],
            [
              77.6366901,
              12.9072778
            ],
            [
              77.636261,
              12.9076961
            ],
            [
              77.6354027,
              12.9076961
            ],
            [
              77.6348019,
              12.9080308
            ],
            [
              77.6327419,
              12.9073615
            ],
            [
              77.6310253,
              12.9073615
            ],
            [
              77.6305103,
              12.9089511
            ],
            [
              77.6300812,
              12.909453
            ],
            [
              77.6284504,
              12.909453
            ],
            [
              77.6277637,
              12.9106243
            ],
            [
              77.6270771,
              12.9110426
            ],
            [
              77.6270771,
              12.9117119
            ],
            [
              77.626133,
              12.9132178
            ],
            [
              77.625618,
              12.9137197
            ],
            [
              77.6255322,
              12.914138
            ],
            [
              77.624588,
              12.9157275
            ],
            [
              77.6263905,
              12.9168988
            ],
            [
              77.6268196,
              12.9167315
            ],
            [
              77.6271629,
              12.9168151
            ],
            [
              77.6275063,
              12.9164805
            ],
            [
              77.6281071,
              12.9163132
            ],
            [
              77.6286221,
              12.9164805
            ],
            [
              77.629137,
              12.9170661
            ],
            [
              77.629137,
              12.9174844
            ],
            [
              77.6295662,
              12.9184883
            ],
            [
              77.6299095,
              12.918321
            ],
            [
              77.6295662,
              12.9173171
            ],
            [
              77.6297379,
              12.9165641
            ],
            [
              77.6303387,
              12.9162295
            ],
            [
              77.6315403,
              12.9162295
            ],
            [
              77.6318836,
              12.9166478
            ],
            [
              77.6318836,
              12.9170661
            ],
            [
              77.6315403,
              12.9174844
            ],
            [
              77.631197,
              12.917568
            ],
            [
              77.6312828,
              12.9184883
            ],
            [
              77.6305962,
              12.9195758
            ],
            [
              77.6290512,
              12.9200778
            ],
            [
              77.6281929,
              12.9198268
            ],
            [
              77.6260471,
              12.9184883
            ],
            [
              77.6244164,
              12.9185719
            ],
            [
              77.6225281,
              12.91807
            ],
            [
              77.6222706,
              12.917819
            ]
          ]
        ]
      }
    }
  ]
}