{
  "type": "FeatureCollection",
  "bbox": [
    77.6104689,
    12.9215836,
    77.6420546,
    12.9514475
  ],
  "features": [
    {
      "type": "Feature",
      "bbox": [
        77.6104689,
        12.9215836,
        77.6420546,
        12.9514475
      ],
      "properties": {
        "name": "Koramangala",
        "source": "Google Maps selected-place raster outline",
        "zoom": 15,
        "vertices": 99,
        "approx_area_km2": 5.564,
        "closed_ring": true,
        "warning": "Reverse-traced from raster tiles; accuracy is limited by Web Mercator pixel resolution at the captured zoom."
      },
      "geometry": {
        "type": "Polygon",
        "coordinates": [
          [
            [
              77.6191378,
              12.9513638
            ],
            [
              77.6187086,
              12.9507783
            ],
            [
              77.6184082,
              12.9505273
            ],
            [
              77.6181078,
              12.9504437
            ],
            [
              77.6163483,
              12.9483943
            ],
            [
              77.6163483,
              12.9481015
            ],
            [
              77.6161337,
              12.9473069
            ],
            [
              77.6160908,
              12.9463449
            ],
            [
              77.6164341,
              12.9453411
            ],
            [
              77.6166916,
              12.9450065
            ],
            [
              77.6167345,
              12.9447138
            ],
            [
              77.616477,
              12.9441282
            ],
            [
              77.6158333,
              12.9435427
            ],
            [
              77.6159191,
              12.9425807
            ],
            [
              77.6158762,
              12.9418697
            ],
            [
              77.6157904,
              12.9418278
            ],
            [
              77.6154041,
              12.9419533
            ],
            [
              77.6150608,
              12.9419115
            ],
            [
              77.6130438,
              12.9409077
            ],
            [
              77.6128292,
              12.9406567
            ],
            [
              77.6128292,
              12.9404058
            ],
            [
              77.612958,
              12.940113
            ],
            [
              77.6124859,
              12.9397366
            ],
            [
              77.6123571,
              12.9394856
            ],
            [
              77.6120567,
              12.9395274
            ],
            [
              77.6117992,
              12.9394438
            ],
            [
              77.6106834,
              12.9386073
            ],
            [
              77.6104689,
              12.9383563
            ],
            [
              77.6104689,
              12.9381054
            ],
            [
              77.6111984,
              12.9363069
            ],
            [
              77.6127863,
              12.9335881
            ],
            [
              77.6138163,
              12.9315805
            ],
            [
              77.6140738,
              12.9312877
            ],
            [
              77.6157475,
              12.9284434
            ],
            [
              77.6160049,
              12.9281925
            ],
            [
              77.6163483,
              12.9276487
            ],
            [
              77.6164341,
              12.9273977
            ],
            [
              77.6183653,
              12.924177
            ],
            [
              77.6188803,
              12.9234659
            ],
            [
              77.6195669,
              12.922211
            ],
            [
              77.6199961,
              12.9218764
            ],
            [
              77.621069,
              12.9215836
            ],
            [
              77.6214123,
              12.9217091
            ],
            [
              77.6230001,
              12.922713
            ],
            [
              77.6241159,
              12.922964
            ],
            [
              77.6243305,
              12.9231313
            ],
            [
              77.6248026,
              12.9231313
            ],
            [
              77.6283646,
              12.9240097
            ],
            [
              77.6295662,
              12.924177
            ],
            [
              77.6299095,
              12.9243025
            ],
            [
              77.6303387,
              12.9243025
            ],
            [
              77.636261,
              12.9252645
            ],
            [
              77.6369047,
              12.9252645
            ],
            [
              77.6374197,
              12.9250972
            ],
            [
              77.6387072,
              12.9243025
            ],
            [
              77.6393938,
              12.924177
            ],
            [
              77.63978,
              12.9239678
            ],
            [
              77.6400375,
              12.9240515
            ],
            [
              77.640295,
              12.9244698
            ],
            [
              77.6420546,
              12.9291963
            ],
            [
              77.6420116,
              12.9295309
            ],
            [
              77.6417112,
              12.9297401
            ],
            [
              77.6404238,
              12.9301165
            ],
            [
              77.6402521,
              12.9302838
            ],
            [
              77.6389217,
              12.9308694
            ],
            [
              77.6383209,
              12.9316223
            ],
            [
              77.6381493,
              12.9319987
            ],
            [
              77.6381063,
              12.9325425
            ],
            [
              77.6378059,
              12.9329189
            ],
            [
              77.6373768,
              12.9337136
            ],
            [
              77.6360035,
              12.9349266
            ],
            [
              77.635746,
              12.9350102
            ],
            [
              77.6352739,
              12.9349266
            ],
            [
              77.6351023,
              12.9351775
            ],
            [
              77.6350594,
              12.9356795
            ],
            [
              77.6338577,
              12.9369342
            ],
            [
              77.6334715,
              12.937227
            ],
            [
              77.6327848,
              12.9381472
            ],
            [
              77.6322699,
              12.9382308
            ],
            [
              77.627635,
              12.9376453
            ],
            [
              77.6269484,
              12.9373107
            ],
            [
              77.6265192,
              12.9377289
            ],
            [
              77.6260471,
              12.9383981
            ],
            [
              77.6254892,
              12.9397784
            ],
            [
              77.6259613,
              12.9442119
            ],
            [
              77.6259184,
              12.9446719
            ],
            [
              77.6253605,
              12.9452575
            ],
            [
              77.6244164,
              12.9457594
            ],
            [
              77.6239872,
              12.9461776
            ],
            [
              77.6238585,
              12.9464704
            ],
            [
              77.6238585,
              12.9468886
            ],
            [
              77.623601,
              12.9473487
            ],
            [
              77.6230001,
              12.9478506
            ],
            [
              77.622571,
              12.9484361
            ],
            [
              77.6216698,
              12.9493144
            ],
            [
              77.6209402,
              12.9498163
            ],
            [
              77.6208973,
              12.9500673
            ],
            [
              77.6199102,
              12.9513638
            ],
            [
              77.6196527,
              12.9514475
            ],
            [
              77.6191378,
              12.9513638
            ]
          ]
        ]
      }
    }
  ]
}