{
  "type": "FeatureCollection",
  "bbox": [
    80.2163315,
    13.0781406,
    80.2487755,
    13.1090723
  ],
  "features": [
    {
      "type": "Feature",
      "bbox": [
        80.2163315,
        13.0781406,
        80.2487755,
        13.1090723
      ],
      "properties": {
        "name": "Anna Nagar West",
        "source": "Google Maps selected-place raster outline",
        "zoom": 13,
        "vertices": 27,
        "approx_area_km2": 9.341,
        "closed_ring": true,
        "extracted_at": "2026-08-25T14:49:15Z",
        "mode": "balanced",
        "warning": "Reverse-traced from raster tiles; accuracy is limited by Web Mercator pixel resolution at the captured zoom."
      },
      "geometry": {
        "type": "Polygon",
        "coordinates": [
          [
            [
              80.2276611,
              13.1085707
            ],
            [
              80.2256012,
              13.107902
            ],
            [
              80.222683,
              13.1062301
            ],
            [
              80.220108,
              13.1037222
            ],
            [
              80.2182198,
              13.10088
            ],
            [
              80.2168465,
              13.0980377
            ],
            [
              80.2163315,
              13.0956969
            ],
            [
              80.2163315,
              13.0918514
            ],
            [
              80.2171898,
              13.0886745
            ],
            [
              80.2190781,
              13.0854977
            ],
            [
              80.221653,
              13.0829896
            ],
            [
              80.2288628,
              13.0793111
            ],
            [
              80.2316093,
              13.078475
            ],
            [
              80.2345276,
              13.0781406
            ],
            [
              80.2376175,
              13.078475
            ],
            [
              80.2403641,
              13.0793111
            ],
            [
              80.2432823,
              13.0809831
            ],
            [
              80.2460289,
              13.0836584
            ],
            [
              80.2479172,
              13.0868353
            ],
            [
              80.2487755,
              13.0900122
            ],
            [
              80.2487755,
              13.0940249
            ],
            [
              80.2479172,
              13.0972017
            ],
            [
              80.2446556,
              13.1027191
            ],
            [
              80.241909,
              13.1053942
            ],
            [
              80.2372742,
              13.107902
            ],
            [
              80.2336693,
              13.1089051
            ],
            [
              80.231266,
              13.1090723
            ],
            [
              80.2276611,
              13.1085707
            ]
          ]
        ]
      }
    }
  ]
}