{
  "type": "FeatureCollection",
  "bbox": [
    77.4600506,
    12.8342303,
    77.7785683,
    13.1421733
  ],
  "features": [
    {
      "type": "Feature",
      "bbox": [
        77.4600506,
        12.8342303,
        77.7785683,
        13.1421733
      ],
      "properties": {
        "name": "Bengaluru",
        "source": "Google Maps selected-place raster outline",
        "zoom": 14,
        "vertices": 936,
        "approx_area_km2": 703.019,
        "warning": "Reverse-traced from raster tiles; accuracy is limited by Web Mercator pixel resolution at the captured zoom."
      },
      "geometry": {
        "type": "Polygon",
        "coordinates": [
          [
            [
              77.5790119,
              13.1421733
            ],
            [
              77.5760078,
              13.1417554
            ],
            [
              77.5752354,
              13.141421
            ],
            [
              77.5745487,
              13.1407524
            ],
            [
              77.5741196,
              13.1397494
            ],
            [
              77.5740337,
              13.1380777
            ],
            [
              77.5735188,
              13.1361553
            ],
            [
              77.5730038,
              13.1359045
            ],
            [
              77.5723171,
              13.1352358
            ],
            [
              77.5719738,
              13.1345671
            ],
            [
              77.5718021,
              13.1333134
            ],
            [
              77.5714588,
              13.1327283
            ],
            [
              77.570858,
              13.1308058
            ],
            [
              77.570858,
              13.1302207
            ],
            [
              77.5699997,
              13.1272115
            ],
            [
              77.569828,
              13.1253726
            ],
            [
              77.5696564,
              13.1250382
            ],
            [
              77.5692272,
              13.1249546
            ],
            [
              77.5681114,
              13.125289
            ],
            [
              77.5671673,
              13.1253726
            ],
            [
              77.5664806,
              13.125289
            ],
            [
              77.5657082,
              13.1249546
            ],
            [
              77.564764,
              13.1239516
            ],
            [
              77.5632191,
              13.1201901
            ],
            [
              77.5630474,
              13.1182675
            ],
            [
              77.5625324,
              13.1161777
            ],
            [
              77.5625324,
              13.115091
            ],
            [
              77.5627899,
              13.1143387
            ],
            [
              77.5636482,
              13.1134192
            ],
            [
              77.5661373,
              13.1123325
            ],
            [
              77.5661373,
              13.1120817
            ],
            [
              77.5656223,
              13.1115801
            ],
            [
              77.5651932,
              13.1107442
            ],
            [
              77.5651073,
              13.1092395
            ],
            [
              77.5650215,
              13.1091559
            ],
            [
              77.5640774,
              13.1096575
            ],
            [
              77.5626183,
              13.1096575
            ],
            [
              77.5618458,
              13.1093231
            ],
            [
              77.5609875,
              13.1084872
            ],
            [
              77.5606441,
              13.1078184
            ],
            [
              77.5603867,
              13.1067317
            ],
            [
              77.559185,
              13.104809
            ],
            [
              77.559185,
              13.1032207
            ],
            [
              77.5580692,
              13.1017995
            ],
            [
              77.5558376,
              13.100044
            ],
            [
              77.5533485,
              13.1005456
            ],
            [
              77.5510311,
              13.1007128
            ],
            [
              77.5496578,
              13.1010472
            ],
            [
              77.5476837,
              13.1009636
            ],
            [
              77.5464821,
              13.1012144
            ],
            [
              77.5457954,
              13.1011308
            ],
            [
              77.545023,
              13.1007964
            ],
            [
              77.543993,
              13.0997096
            ],
            [
              77.5425339,
              13.0958641
            ],
            [
              77.5422764,
              13.0941085
            ],
            [
              77.5409031,
              13.0917678
            ],
            [
              77.5407314,
              13.0896778
            ],
            [
              77.5370407,
              13.0838256
            ],
            [
              77.5357533,
              13.0835748
            ],
            [
              77.5352383,
              13.0836584
            ],
            [
              77.532835,
              13.0834076
            ],
            [
              77.5307751,
              13.0828224
            ],
            [
              77.5296593,
              13.08207
            ],
            [
              77.5285435,
              13.08207
            ],
            [
              77.5271702,
              13.0826552
            ],
            [
              77.526226,
              13.0828224
            ],
            [
              77.5251102,
              13.0827388
            ],
            [
              77.5243378,
              13.0824044
            ],
            [
              77.5235653,
              13.081652
            ],
            [
              77.5231361,
              13.0808159
            ],
            [
              77.5218487,
              13.0801471
            ],
            [
              77.5208187,
              13.0789767
            ],
            [
              77.5203896,
              13.0789767
            ],
            [
              77.5196171,
              13.0786422
            ],
            [
              77.5188446,
              13.0778898
            ],
            [
              77.5184155,
              13.0768865
            ],
            [
              77.5184155,
              13.0753816
            ],
            [
              77.518158,
              13.0743784
            ],
            [
              77.5178146,
              13.0742112
            ],
            [
              77.5143814,
              13.07488
            ],
            [
              77.5134373,
              13.075298
            ],
            [
              77.5127506,
              13.0759669
            ],
            [
              77.5122356,
              13.0762177
            ],
            [
              77.5112915,
              13.0763849
            ],
            [
              77.5102615,
              13.0762177
            ],
            [
              77.5084591,
              13.0774718
            ],
            [
              77.5072575,
              13.077639
            ],
            [
              77.5065708,
              13.0775554
            ],
            [
              77.5057983,
              13.077221
            ],
            [
              77.5045109,
              13.0760505
            ],
            [
              77.5040817,
              13.0753816
            ],
            [
              77.5028801,
              13.0747964
            ],
            [
              77.5012493,
              13.0729571
            ],
            [
              77.499876,
              13.0720374
            ],
            [
              77.4991894,
              13.0720374
            ],
            [
              77.4983311,
              13.0728735
            ],
            [
              77.4978161,
              13.0731243
            ],
            [
              77.4961853,
              13.0733751
            ],
            [
              77.494812,
              13.0732079
            ],
            [
              77.4941254,
              13.0728735
            ],
            [
              77.4934387,
              13.0722046
            ],
            [
              77.4930954,
              13.0715358
            ],
            [
              77.4929237,
              13.0706161
            ],
            [
              77.4927521,
              13.067439
            ],
            [
              77.4928379,
              13.0639274
            ],
            [
              77.4930954,
              13.0621716
            ],
            [
              77.4924946,
              13.0611683
            ],
            [
              77.4913788,
              13.0578239
            ],
            [
              77.4914646,
              13.0564861
            ],
            [
              77.4924946,
              13.0547303
            ],
            [
              77.4926662,
              13.0514694
            ],
            [
              77.4924946,
              13.0509677
            ],
            [
              77.4924946,
              13.0500479
            ],
            [
              77.4927521,
              13.0492954
            ],
            [
              77.4936104,
              13.0483756
            ],
            [
              77.4943829,
              13.0480412
            ],
            [
              77.496357,
              13.0479576
            ],
            [
              77.4973869,
              13.0482084
            ],
            [
              77.4985886,
              13.0478739
            ],
            [
              77.4999619,
              13.0479576
            ],
            [
              77.5003052,
              13.0481248
            ],
            [
              77.5017643,
              13.0478739
            ],
            [
              77.5031376,
              13.0481248
            ],
            [
              77.5051117,
              13.0479576
            ],
            [
              77.5066566,
              13.0481248
            ],
            [
              77.507,
              13.0479576
            ],
            [
              77.5073433,
              13.0474559
            ],
            [
              77.5073433,
              13.0470378
            ],
            [
              77.507,
              13.0465361
            ],
            [
              77.5066566,
              13.0463689
            ],
            [
              77.5057125,
              13.0463689
            ],
            [
              77.5048542,
              13.0459508
            ],
            [
              77.5034809,
              13.046118
            ],
            [
              77.5022793,
              13.0457836
            ],
            [
              77.5015926,
              13.0460344
            ],
            [
              77.5000477,
              13.046118
            ],
            [
              77.499361,
              13.046787
            ],
            [
              77.4984169,
              13.047205
            ],
            [
              77.4955845,
              13.047205
            ],
            [
              77.4948978,
              13.0476231
            ],
            [
              77.4938679,
              13.0477903
            ],
            [
              77.4931812,
              13.0477067
            ],
            [
              77.4924088,
              13.0473723
            ],
            [
              77.4915504,
              13.0464525
            ],
            [
              77.4911213,
              13.0451983
            ],
            [
              77.4906921,
              13.045031
            ],
            [
              77.4893188,
              13.0458672
            ],
            [
              77.4883747,
              13.0460344
            ],
            [
              77.4878597,
              13.0459508
            ],
            [
              77.4862289,
              13.0464525
            ],
            [
              77.4832249,
              13.0477903
            ],
            [
              77.4823666,
              13.0478739
            ],
            [
              77.4814224,
              13.0477067
            ],
            [
              77.4809074,
              13.0474559
            ],
            [
              77.4800491,
              13.0465361
            ],
            [
              77.4797916,
              13.0457836
            ],
            [
              77.4797916,
              13.0449474
            ],
            [
              77.4800491,
              13.0441949
            ],
            [
              77.4813366,
              13.0429406
            ],
            [
              77.4815941,
              13.0421045
            ],
            [
              77.4825382,
              13.0409338
            ],
            [
              77.4822807,
              13.0402649
            ],
            [
              77.4809933,
              13.0390942
            ],
            [
              77.4803066,
              13.0380908
            ],
            [
              77.4800491,
              13.0373383
            ],
            [
              77.4799633,
              13.0359168
            ],
            [
              77.47859,
              13.0346625
            ],
            [
              77.4776459,
              13.0326556
            ],
            [
              77.4776459,
              13.0317358
            ],
            [
              77.4779034,
              13.0309832
            ],
            [
              77.4795341,
              13.0293944
            ],
            [
              77.47962,
              13.0290599
            ],
            [
              77.4785042,
              13.0259659
            ],
            [
              77.47859,
              13.0228719
            ],
            [
              77.4789333,
              13.0218684
            ],
            [
              77.4783325,
              13.0188579
            ],
            [
              77.4773884,
              13.0167673
            ],
            [
              77.4770451,
              13.0155966
            ],
            [
              77.4770451,
              13.0147603
            ],
            [
              77.4754143,
              13.0131714
            ],
            [
              77.4749851,
              13.0116661
            ],
            [
              77.4739552,
              13.0093246
            ],
            [
              77.4739552,
              13.0084883
            ],
            [
              77.4742126,
              13.0077356
            ],
            [
              77.4753284,
              13.0066485
            ],
            [
              77.475071,
              13.0055613
            ],
            [
              77.475071,
              13.0044741
            ],
            [
              77.4755001,
              13.0032197
            ],
            [
              77.4748135,
              13.0005435
            ],
            [
              77.4748993,
              12.9988709
            ],
            [
              77.4741268,
              12.9984527
            ],
            [
              77.4733543,
              12.9977
            ],
            [
              77.4729252,
              12.9966965
            ],
            [
              77.4721527,
              12.9959438
            ],
            [
              77.4716377,
              12.9951075
            ],
            [
              77.4705219,
              12.9910931
            ],
            [
              77.4704361,
              12.9902567
            ],
            [
              77.4696636,
              12.9888349
            ],
            [
              77.4695778,
              12.987664
            ],
            [
              77.4698353,
              12.9869113
            ],
            [
              77.4706936,
              12.9859913
            ],
            [
              77.4721527,
              12.9850713
            ],
            [
              77.4736977,
              12.9837332
            ],
            [
              77.474041,
              12.9818095
            ],
            [
              77.474041,
              12.980555
            ],
            [
              77.4744701,
              12.9792168
            ],
            [
              77.4746418,
              12.9771258
            ],
            [
              77.4749851,
              12.9762058
            ],
            [
              77.4753284,
              12.9700164
            ],
            [
              77.4748135,
              12.9694309
            ],
            [
              77.4746418,
              12.9688455
            ],
            [
              77.4736977,
              12.9672563
            ],
            [
              77.4734402,
              12.9649979
            ],
            [
              77.473526,
              12.9629069
            ],
            [
              77.4744701,
              12.9611503
            ],
            [
              77.4742126,
              12.9603975
            ],
            [
              77.4742126,
              12.9595611
            ],
            [
              77.4743843,
              12.9591429
            ],
            [
              77.4726677,
              12.956048
            ],
            [
              77.4718094,
              12.9539569
            ],
            [
              77.4718952,
              12.9527858
            ],
            [
              77.4725819,
              12.951782
            ],
            [
              77.4726677,
              12.9508619
            ],
            [
              77.473011,
              12.9501927
            ],
            [
              77.4737835,
              12.9494399
            ],
            [
              77.4742985,
              12.949189
            ],
            [
              77.4755859,
              12.9490217
            ],
            [
              77.4763584,
              12.9486871
            ],
            [
              77.4760151,
              12.9477669
            ],
            [
              77.4760151,
              12.9472651
            ],
            [
              77.4756718,
              12.9466795
            ],
            [
              77.475071,
              12.9446719
            ],
            [
              77.475071,
              12.9437518
            ],
            [
              77.4744701,
              12.9419951
            ],
            [
              77.4744701,
              12.9411586
            ],
            [
              77.4748993,
              12.9401548
            ],
            [
              77.4768734,
              12.9383981
            ],
            [
              77.4777317,
              12.9379799
            ],
            [
              77.4792767,
              12.9375616
            ],
            [
              77.4839115,
              12.937227
            ],
            [
              77.4840832,
              12.9370597
            ],
            [
              77.4839973,
              12.9340482
            ],
            [
              77.483654,
              12.9330444
            ],
            [
              77.483654,
              12.9319569
            ],
            [
              77.4839115,
              12.9313713
            ],
            [
              77.4838257,
              12.9302838
            ],
            [
              77.4812508,
              12.9249299
            ],
            [
              77.4811649,
              12.9235914
            ],
            [
              77.4809074,
              12.9230894
            ],
            [
              77.4792767,
              12.923675
            ],
            [
              77.4790192,
              12.9240097
            ],
            [
              77.4789333,
              12.9245953
            ],
            [
              77.4785042,
              12.9255155
            ],
            [
              77.4778175,
              12.9261847
            ],
            [
              77.4773026,
              12.9264357
            ],
            [
              77.4757576,
              12.9267703
            ],
            [
              77.4748135,
              12.9266867
            ],
            [
              77.474041,
              12.926352
            ],
            [
              77.4733543,
              12.9256828
            ],
            [
              77.4725819,
              12.924177
            ],
            [
              77.4722385,
              12.9222529
            ],
            [
              77.4709511,
              12.9187393
            ],
            [
              77.4700928,
              12.9150583
            ],
            [
              77.468977,
              12.9133851
            ],
            [
              77.4672604,
              12.9114609
            ],
            [
              77.4666595,
              12.9102896
            ],
            [
              77.4665737,
              12.9072778
            ],
            [
              77.4664021,
              12.9069432
            ],
            [
              77.4649429,
              12.9066085
            ],
            [
              77.4619389,
              12.9063575
            ],
            [
              77.4611664,
              12.9060229
            ],
            [
              77.4603081,
              12.9051026
            ],
            [
              77.4600506,
              12.9043496
            ],
            [
              77.4602222,
              12.9002501
            ],
            [
              77.4605656,
              12.8989115
            ],
            [
              77.4611664,
              12.8982422
            ],
            [
              77.461853,
              12.8967362
            ],
            [
              77.4631405,
              12.8955649
            ],
            [
              77.4647713,
              12.8933896
            ],
            [
              77.4650288,
              12.8928039
            ],
            [
              77.4657154,
              12.8921345
            ],
            [
              77.4662304,
              12.8918835
            ],
            [
              77.4671745,
              12.8917162
            ],
            [
              77.4678612,
              12.8917999
            ],
            [
              77.4686337,
              12.8921345
            ],
            [
              77.4693203,
              12.8928039
            ],
            [
              77.4700069,
              12.8942262
            ],
            [
              77.4718952,
              12.8964852
            ],
            [
              77.4728394,
              12.8979075
            ],
            [
              77.4736977,
              12.8984932
            ],
            [
              77.475071,
              12.8979912
            ],
            [
              77.4772167,
              12.8966525
            ],
            [
              77.4770451,
              12.8949792
            ],
            [
              77.4773026,
              12.8942262
            ],
            [
              77.4791908,
              12.8918835
            ],
            [
              77.4795341,
              12.8909632
            ],
            [
              77.4802208,
              12.8902939
            ],
            [
              77.4813366,
              12.8899592
            ],
            [
              77.4816799,
              12.8896245
            ],
            [
              77.4821949,
              12.8884532
            ],
            [
              77.4825382,
              12.8863615
            ],
            [
              77.4821949,
              12.8860268
            ],
            [
              77.4812508,
              12.8861104
            ],
            [
              77.4803066,
              12.8859431
            ],
            [
              77.4797916,
              12.8856921
            ],
            [
              77.4789333,
              12.8848554
            ],
            [
              77.4763584,
              12.8818433
            ],
            [
              77.4761009,
              12.8810903
            ],
            [
              77.4761868,
              12.8799189
            ],
            [
              77.4765301,
              12.8792495
            ],
            [
              77.4772167,
              12.8785801
            ],
            [
              77.4781609,
              12.8781618
            ],
            [
              77.4791908,
              12.8780781
            ],
            [
              77.4799633,
              12.8782454
            ],
            [
              77.4815941,
              12.8782454
            ],
            [
              77.4821091,
              12.8771577
            ],
            [
              77.4827957,
              12.8764883
            ],
            [
              77.4838257,
              12.87607
            ],
            [
              77.4838257,
              12.8748985
            ],
            [
              77.4840832,
              12.8741455
            ],
            [
              77.4855423,
              12.8726394
            ],
            [
              77.4863148,
              12.8723047
            ],
            [
              77.4870014,
              12.872221
            ],
            [
              77.4878597,
              12.8723047
            ],
            [
              77.4884605,
              12.8725557
            ],
            [
              77.4900055,
              12.8718863
            ],
            [
              77.4916363,
              12.8718863
            ],
            [
              77.4926662,
              12.8723883
            ],
            [
              77.4935246,
              12.8723883
            ],
            [
              77.494297,
              12.872723
            ],
            [
              77.4951553,
              12.8736434
            ],
            [
              77.4954987,
              12.8753169
            ],
            [
              77.4981594,
              12.8753169
            ],
            [
              77.4999619,
              12.8757353
            ],
            [
              77.501421,
              12.8757353
            ],
            [
              77.5033951,
              12.8767393
            ],
            [
              77.5040817,
              12.8769067
            ],
            [
              77.5051975,
              12.8764046
            ],
            [
              77.5082874,
              12.8714679
            ],
            [
              77.5091457,
              12.8702965
            ],
            [
              77.5102615,
              12.8692087
            ],
            [
              77.5116348,
              12.868372
            ],
            [
              77.5131798,
              12.868121
            ],
            [
              77.5149822,
              12.8682046
            ],
            [
              77.5159264,
              12.868623
            ],
            [
              77.5198746,
              12.8726394
            ],
            [
              77.5204754,
              12.8721373
            ],
            [
              77.5233078,
              12.8706312
            ],
            [
              77.5242519,
              12.8698781
            ],
            [
              77.5258827,
              12.8693761
            ],
            [
              77.5271702,
              12.8684557
            ],
            [
              77.5275993,
              12.8675352
            ],
            [
              77.5276852,
              12.8643555
            ],
            [
              77.5278568,
              12.8632678
            ],
            [
              77.5274277,
              12.862682
            ],
            [
              77.5271702,
              12.8619289
            ],
            [
              77.527256,
              12.8606738
            ],
            [
              77.5275993,
              12.8600043
            ],
            [
              77.528286,
              12.8593349
            ],
            [
              77.5290585,
              12.8590002
            ],
            [
              77.5321484,
              12.8589165
            ],
            [
              77.5340366,
              12.859586
            ],
            [
              77.5350666,
              12.8606738
            ],
            [
              77.5356674,
              12.8620963
            ],
            [
              77.5357533,
              12.8632678
            ],
            [
              77.5354958,
              12.8638535
            ],
            [
              77.5356674,
              12.8645229
            ],
            [
              77.5363541,
              12.8646066
            ],
            [
              77.5371265,
              12.8649413
            ],
            [
              77.5379848,
              12.8658617
            ],
            [
              77.538414,
              12.8660291
            ],
            [
              77.5391865,
              12.8667821
            ],
            [
              77.539444,
              12.8673679
            ],
            [
              77.5398731,
              12.8677026
            ],
            [
              77.5418472,
              12.8677026
            ],
            [
              77.5428772,
              12.8672842
            ],
            [
              77.5438213,
              12.8672005
            ],
            [
              77.5481987,
              12.8653597
            ],
            [
              77.5487995,
              12.8644392
            ],
            [
              77.5468254,
              12.8623473
            ],
            [
              77.5461388,
              12.8604227
            ],
            [
              77.5462246,
              12.8590839
            ],
            [
              77.5467396,
              12.8582471
            ],
            [
              77.5466537,
              12.8562388
            ],
            [
              77.5469971,
              12.8552347
            ],
            [
              77.5457954,
              12.8521385
            ],
            [
              77.5457096,
              12.8506323
            ],
            [
              77.5461388,
              12.849377
            ],
            [
              77.5469971,
              12.8484565
            ],
            [
              77.5479412,
              12.8480381
            ],
            [
              77.5486279,
              12.8479545
            ],
            [
              77.5512886,
              12.8482055
            ],
            [
              77.5519753,
              12.8479545
            ],
            [
              77.5532627,
              12.8478708
            ],
            [
              77.5542927,
              12.8481218
            ],
            [
              77.5552368,
              12.8481218
            ],
            [
              77.5560093,
              12.8484565
            ],
            [
              77.5568676,
              12.8492934
            ],
            [
              77.5572968,
              12.8502975
            ],
            [
              77.5585842,
              12.8502975
            ],
            [
              77.5587559,
              12.8501302
            ],
            [
              77.5585842,
              12.849126
            ],
            [
              77.5573826,
              12.8485402
            ],
            [
              77.5565243,
              12.8476197
            ],
            [
              77.5562668,
              12.8468666
            ],
            [
              77.5562668,
              12.8460298
            ],
            [
              77.5565243,
              12.8452766
            ],
            [
              77.5574684,
              12.843854
            ],
            [
              77.5577259,
              12.8428498
            ],
            [
              77.5585842,
              12.8419293
            ],
            [
              77.5621033,
              12.8407577
            ],
            [
              77.5629616,
              12.8400882
            ],
            [
              77.5637341,
              12.8397535
            ],
            [
              77.5645065,
              12.8396698
            ],
            [
              77.5659657,
              12.8398372
            ],
            [
              77.5715446,
              12.8392514
            ],
            [
              77.5721455,
              12.8393351
            ],
            [
              77.5760078,
              12.8386656
            ],
            [
              77.5783253,
              12.8384145
            ],
            [
              77.5789261,
              12.8384982
            ],
            [
              77.5818443,
              12.8374103
            ],
            [
              77.5831318,
              12.835904
            ],
            [
              77.5856209,
              12.8343976
            ],
            [
              77.5867367,
              12.8342303
            ],
            [
              77.5874233,
              12.8343139
            ],
            [
              77.5883675,
              12.8347324
            ],
            [
              77.5897408,
              12.8357366
            ],
            [
              77.5900841,
              12.8356529
            ],
            [
              77.5910282,
              12.8358203
            ],
            [
              77.5915432,
              12.8360714
            ],
            [
              77.5924015,
              12.8369919
            ],
            [
              77.5927448,
              12.8377451
            ],
            [
              77.5930023,
              12.8390003
            ],
            [
              77.5937748,
              12.840674
            ],
            [
              77.5937748,
              12.8417619
            ],
            [
              77.5942039,
              12.8434356
            ],
            [
              77.5943756,
              12.8469503
            ],
            [
              77.5950623,
              12.8486239
            ],
            [
              77.5959206,
              12.8485402
            ],
            [
              77.5971222,
              12.8487076
            ],
            [
              77.597723,
              12.8484565
            ],
            [
              77.5997829,
              12.8481218
            ],
            [
              77.6019287,
              12.8482892
            ],
            [
              77.6023579,
              12.8484565
            ],
            [
              77.6040745,
              12.8484565
            ],
            [
              77.6062202,
              12.8479545
            ],
            [
              77.6072502,
              12.8481218
            ],
            [
              77.6077652,
              12.8483729
            ],
            [
              77.6086235,
              12.8492934
            ],
            [
              77.608881,
              12.8500465
            ],
            [
              77.608881,
              12.851218
            ],
            [
              77.6093102,
              12.8514691
            ],
            [
              77.6111984,
              12.8515527
            ],
            [
              77.6123142,
              12.8519711
            ],
            [
              77.6135159,
              12.8532263
            ],
            [
              77.6141167,
              12.8542305
            ],
            [
              77.6161766,
              12.8560715
            ],
            [
              77.6168633,
              12.857745
            ],
            [
              77.6177216,
              12.8576614
            ],
            [
              77.6184082,
              12.857745
            ],
            [
              77.6192665,
              12.8581634
            ],
            [
              77.6202106,
              12.8580797
            ],
            [
              77.6211548,
              12.8582471
            ],
            [
              77.6216698,
              12.8584981
            ],
            [
              77.6224422,
              12.8592512
            ],
            [
              77.6227856,
              12.859837
            ],
            [
              77.6230431,
              12.8599207
            ],
            [
              77.624073,
              12.8588328
            ],
            [
              77.6251888,
              12.8580797
            ],
            [
              77.6270771,
              12.8574103
            ],
            [
              77.6287079,
              12.8574103
            ],
            [
              77.6294804,
              12.857745
            ],
            [
              77.630167,
              12.8584145
            ],
            [
              77.6305103,
              12.8590839
            ],
            [
              77.6305962,
              12.8599207
            ],
            [
              77.6324844,
              12.8615105
            ],
            [
              77.6337719,
              12.8620126
            ],
            [
              77.6345444,
              12.8627657
            ],
            [
              77.6351452,
              12.8631004
            ],
            [
              77.6370335,
              12.8631841
            ],
            [
              77.6378059,
              12.8635188
            ],
            [
              77.6384926,
              12.8641882
            ],
            [
              77.6390076,
              12.865025
            ],
            [
              77.6396942,
              12.8651923
            ],
            [
              77.6410675,
              12.8651923
            ],
            [
              77.6414108,
              12.8648576
            ],
            [
              77.6420975,
              12.8634351
            ],
            [
              77.6421833,
              12.8623473
            ],
            [
              77.6427841,
              12.8608411
            ],
            [
              77.6428699,
              12.859837
            ],
            [
              77.6431274,
              12.8592512
            ],
            [
              77.6431274,
              12.8552347
            ],
            [
              77.6432991,
              12.8538958
            ],
            [
              77.6436424,
              12.8532263
            ],
            [
              77.6443291,
              12.8525569
            ],
            [
              77.6452732,
              12.8521385
            ],
            [
              77.6459599,
              12.8520548
            ],
            [
              77.6471615,
              12.8521385
            ],
            [
              77.6485348,
              12.8527243
            ],
            [
              77.6517963,
              12.855151
            ],
            [
              77.6523113,
              12.8552347
            ],
            [
              77.6534271,
              12.8559041
            ],
            [
              77.6543713,
              12.8559878
            ],
            [
              77.6553154,
              12.8564062
            ],
            [
              77.6573753,
              12.8581634
            ],
            [
              77.6582336,
              12.8582471
            ],
            [
              77.6591778,
              12.8588328
            ],
            [
              77.6607227,
              12.8588328
            ],
            [
              77.6616669,
              12.8592512
            ],
            [
              77.6632977,
              12.8607574
            ],
            [
              77.6637268,
              12.8618452
            ],
            [
              77.6646709,
              12.8628494
            ],
            [
              77.6651001,
              12.8641882
            ],
            [
              77.6662159,
              12.865527
            ],
            [
              77.6664734,
              12.8661127
            ],
            [
              77.6672459,
              12.8666985
            ],
            [
              77.668705,
              12.8670332
            ],
            [
              77.6717949,
              12.868372
            ],
            [
              77.6725674,
              12.8691251
            ],
            [
              77.6746273,
              12.8720537
            ],
            [
              77.6748848,
              12.8728067
            ],
            [
              77.6748848,
              12.8742292
            ],
            [
              77.6747131,
              12.8748149
            ],
            [
              77.6734257,
              12.877325
            ],
            [
              77.6723099,
              12.8787475
            ],
            [
              77.6719666,
              12.8795842
            ],
            [
              77.6713657,
              12.8801699
            ],
            [
              77.6715374,
              12.8804209
            ],
            [
              77.672224,
              12.8806719
            ],
            [
              77.6729107,
              12.8813413
            ],
            [
              77.6733398,
              12.8823453
            ],
            [
              77.673254,
              12.8836004
            ],
            [
              77.6726532,
              12.8845207
            ],
            [
              77.6725674,
              12.8855248
            ],
            [
              77.672224,
              12.8861104
            ],
            [
              77.6729107,
              12.8888715
            ],
            [
              77.673254,
              12.8912979
            ],
            [
              77.6741123,
              12.8922182
            ],
            [
              77.6744556,
              12.8935569
            ],
            [
              77.6770306,
              12.8943935
            ],
            [
              77.6779747,
              12.8953139
            ],
            [
              77.679863,
              12.8978238
            ],
            [
              77.6818371,
              12.8995808
            ],
            [
              77.6822662,
              12.9004175
            ],
            [
              77.6824379,
              12.9015051
            ],
            [
              77.6830387,
              12.9017561
            ],
            [
              77.683897,
              12.9018397
            ],
            [
              77.684412,
              12.9020907
            ],
            [
              77.6851845,
              12.9028437
            ],
            [
              77.6855278,
              12.903513
            ],
            [
              77.6856136,
              12.9049353
            ],
            [
              77.685957,
              12.9055209
            ],
            [
              77.6861286,
              12.9064412
            ],
            [
              77.6879311,
              12.9070268
            ],
            [
              77.6887894,
              12.9079471
            ],
            [
              77.6890469,
              12.9087001
            ],
            [
              77.6888752,
              12.9103733
            ],
            [
              77.6900768,
              12.910457
            ],
            [
              77.6911068,
              12.9110426
            ],
            [
              77.6916218,
              12.9107916
            ],
            [
              77.6923084,
              12.9107079
            ],
            [
              77.6930809,
              12.9108753
            ],
            [
              77.6942825,
              12.9105406
            ],
            [
              77.6954842,
              12.9106243
            ],
            [
              77.6958275,
              12.9107916
            ],
            [
              77.6972866,
              12.9105406
            ],
            [
              77.6980591,
              12.9107079
            ],
            [
              77.6990891,
              12.910457
            ],
            [
              77.7007198,
              12.9105406
            ],
            [
              77.7012348,
              12.9107916
            ],
            [
              77.7020073,
              12.9106243
            ],
            [
              77.7026939,
              12.9107079
            ],
            [
              77.7031231,
              12.9103733
            ],
            [
              77.7029514,
              12.9097877
            ],
            [
              77.7010632,
              12.9091184
            ],
            [
              77.7002048,
              12.9090347
            ],
            [
              77.6996899,
              12.9087837
            ],
            [
              77.6990032,
              12.9081144
            ],
            [
              77.6985741,
              12.9071105
            ],
            [
              77.6986599,
              12.9059392
            ],
            [
              77.6990032,
              12.9052699
            ],
            [
              77.6996899,
              12.9046006
            ],
            [
              77.7002048,
              12.9043496
            ],
            [
              77.7024364,
              12.9038477
            ],
            [
              77.7032089,
              12.904015
            ],
            [
              77.7040672,
              12.9034293
            ],
            [
              77.7050114,
              12.903262
            ],
            [
              77.7057838,
              12.9033457
            ],
            [
              77.7065563,
              12.9036803
            ],
            [
              77.7074146,
              12.9046006
            ],
            [
              77.7079296,
              12.9062739
            ],
            [
              77.7081013,
              12.9078635
            ],
            [
              77.7083588,
              12.9082818
            ],
            [
              77.7105045,
              12.9079471
            ],
            [
              77.7141953,
              12.9080308
            ],
            [
              77.7152252,
              12.9077798
            ],
            [
              77.7161694,
              12.9079471
            ],
            [
              77.7166843,
              12.9081981
            ],
            [
              77.7172852,
              12.9087837
            ],
            [
              77.7176285,
              12.9088674
            ],
            [
              77.7189159,
              12.9086164
            ],
            [
              77.7205467,
              12.9090347
            ],
            [
              77.7217484,
              12.9076961
            ],
            [
              77.7222633,
              12.9074452
            ],
            [
              77.7232075,
              12.9072778
            ],
            [
              77.7249241,
              12.9073615
            ],
            [
              77.7256966,
              12.9076961
            ],
            [
              77.7263832,
              12.9083654
            ],
            [
              77.7268124,
              12.909202
            ],
            [
              77.7273273,
              12.9110426
            ],
            [
              77.727499,
              12.9136361
            ],
            [
              77.7277565,
              12.91464
            ],
            [
              77.7288723,
              12.91464
            ],
            [
              77.7313614,
              12.9142217
            ],
            [
              77.7331638,
              12.914389
            ],
            [
              77.7352238,
              12.913887
            ],
            [
              77.7361679,
              12.9140544
            ],
            [
              77.7366829,
              12.9143053
            ],
            [
              77.7373695,
              12.9149746
            ],
            [
              77.7377987,
              12.9159785
            ],
            [
              77.7377129,
              12.9171497
            ],
            [
              77.7367687,
              12.9186556
            ],
            [
              77.737112,
              12.9189066
            ],
            [
              77.7383137,
              12.9187393
            ],
            [
              77.7394295,
              12.9188229
            ],
            [
              77.7416611,
              12.9199941
            ],
            [
              77.7422619,
              12.9194085
            ],
            [
              77.7430344,
              12.9190739
            ],
            [
              77.7438068,
              12.9189902
            ],
            [
              77.744751,
              12.9191575
            ],
            [
              77.7456093,
              12.9197432
            ],
            [
              77.7460384,
              12.9197432
            ],
            [
              77.7468109,
              12.9200778
            ],
            [
              77.7475834,
              12.9209144
            ],
            [
              77.7505875,
              12.9220019
            ],
            [
              77.7514458,
              12.9229221
            ],
            [
              77.7520466,
              12.9252645
            ],
            [
              77.7523041,
              12.9255155
            ],
            [
              77.7562523,
              12.926352
            ],
            [
              77.7591705,
              12.9275232
            ],
            [
              77.7638912,
              12.929029
            ],
            [
              77.7646637,
              12.9297819
            ],
            [
              77.7652645,
              12.9310367
            ],
            [
              77.765522,
              12.9321242
            ],
            [
              77.765522,
              12.9329607
            ],
            [
              77.7659512,
              12.9343828
            ],
            [
              77.7659512,
              12.935554
            ],
            [
              77.7653503,
              12.9369761
            ],
            [
              77.7653503,
              12.9401548
            ],
            [
              77.7651787,
              12.9419115
            ],
            [
              77.7649212,
              12.942497
            ],
            [
              77.7653503,
              12.9455084
            ],
            [
              77.7653503,
              12.9473487
            ],
            [
              77.765007,
              12.9499418
            ],
            [
              77.7644062,
              12.9519493
            ],
            [
              77.764492,
              12.9552115
            ],
            [
              77.7642345,
              12.9562989
            ],
            [
              77.7644062,
              12.9592265
            ],
            [
              77.7650928,
              12.960063
            ],
            [
              77.7658653,
              12.9598957
            ],
            [
              77.766552,
              12.9599793
            ],
            [
              77.7673244,
              12.9603139
            ],
            [
              77.7685261,
              12.9615686
            ],
            [
              77.7692127,
              12.9619031
            ],
            [
              77.7701569,
              12.9629069
            ],
            [
              77.770586,
              12.9643288
            ],
            [
              77.7719593,
              12.9660853
            ],
            [
              77.7736759,
              12.9663362
            ],
            [
              77.7752209,
              12.9670053
            ],
            [
              77.7759933,
              12.9675908
            ],
            [
              77.7772808,
              12.9680927
            ],
            [
              77.7783108,
              12.96918
            ],
            [
              77.7785683,
              12.9699328
            ],
            [
              77.7784824,
              12.9719402
            ],
            [
              77.7782249,
              12.9726929
            ],
            [
              77.7773666,
              12.973613
            ],
            [
              77.77668,
              12.9739475
            ],
            [
              77.776165,
              12.9747839
            ],
            [
              77.7760792,
              12.975453
            ],
            [
              77.7768517,
              12.9772095
            ],
            [
              77.7768517,
              12.9780458
            ],
            [
              77.7765942,
              12.9787986
            ],
            [
              77.7755642,
              12.9798859
            ],
            [
              77.7747917,
              12.9802204
            ],
            [
              77.7745342,
              12.980555
            ],
            [
              77.775135,
              12.9820604
            ],
            [
              77.7759933,
              12.9830641
            ],
            [
              77.7763367,
              12.9841514
            ],
            [
              77.7762508,
              12.9854059
            ],
            [
              77.77565,
              12.9865768
            ],
            [
              77.7759075,
              12.9871622
            ],
            [
              77.7759075,
              12.9886677
            ],
            [
              77.7752209,
              12.9907585
            ],
            [
              77.7741051,
              12.9918458
            ],
            [
              77.7741909,
              12.9930166
            ],
            [
              77.7739334,
              12.9940202
            ],
            [
              77.7743626,
              12.9958601
            ],
            [
              77.7742767,
              12.9978673
            ],
            [
              77.7746201,
              12.9987036
            ],
            [
              77.7746201,
              12.9995399
            ],
            [
              77.7741051,
              13.000878
            ],
            [
              77.7718735,
              13.0029688
            ],
            [
              77.771101,
              13.0033033
            ],
            [
              77.7704144,
              13.0033869
            ],
            [
              77.7694702,
              13.0032197
            ],
            [
              77.7686119,
              13.0026343
            ],
            [
              77.7676678,
              13.0029688
            ],
            [
              77.7668095,
              13.0030524
            ],
            [
              77.7656078,
              13.0027179
            ],
            [
              77.7641487,
              13.0027179
            ],
            [
              77.7636337,
              13.002467
            ],
            [
              77.7629471,
              13.0028015
            ],
            [
              77.7623463,
              13.0028015
            ],
            [
              77.7618313,
              13.0030524
            ],
            [
              77.7607155,
              13.0032197
            ],
            [
              77.7597713,
              13.0030524
            ],
            [
              77.758913,
              13.002467
            ],
            [
              77.7584839,
              13.0028852
            ],
            [
              77.7592564,
              13.0037215
            ],
            [
              77.7595139,
              13.0044741
            ],
            [
              77.7595139,
              13.005394
            ],
            [
              77.7591705,
              13.0062303
            ],
            [
              77.7590847,
              13.006983
            ],
            [
              77.7587414,
              13.007652
            ],
            [
              77.7579689,
              13.0084047
            ],
            [
              77.7570248,
              13.0089064
            ],
            [
              77.7560806,
              13.0090737
            ],
            [
              77.7546215,
              13.0089901
            ],
            [
              77.7531624,
              13.0101608
            ],
            [
              77.750845,
              13.0111644
            ],
            [
              77.7489567,
              13.0111644
            ],
            [
              77.7481842,
              13.0108299
            ],
            [
              77.7474976,
              13.0101608
            ],
            [
              77.7470684,
              13.0091573
            ],
            [
              77.7470684,
              13.0074011
            ],
            [
              77.7472401,
              13.0068994
            ],
            [
              77.7468109,
              13.0066485
            ],
            [
              77.7456951,
              13.0068994
            ],
            [
              77.744751,
              13.0068157
            ],
            [
              77.7439785,
              13.006983
            ],
            [
              77.7431202,
              13.0068157
            ],
            [
              77.7414036,
              13.0068994
            ],
            [
              77.740202,
              13.0075684
            ],
            [
              77.7392578,
              13.0077356
            ],
            [
              77.7382278,
              13.0075684
            ],
            [
              77.7370262,
              13.0077356
            ],
            [
              77.7361679,
              13.0075684
            ],
            [
              77.7359104,
              13.0078193
            ],
            [
              77.7356529,
              13.0089064
            ],
            [
              77.7347946,
              13.0098263
            ],
            [
              77.7329063,
              13.010579
            ],
            [
              77.7319622,
              13.0107462
            ],
            [
              77.7299881,
              13.0107462
            ],
            [
              77.728529,
              13.0104117
            ],
            [
              77.728014,
              13.0104954
            ],
            [
              77.7279282,
              13.0108299
            ],
            [
              77.7281857,
              13.0122515
            ],
            [
              77.7282715,
              13.0141749
            ],
            [
              77.7287006,
              13.0157638
            ],
            [
              77.7291298,
              13.0164328
            ],
            [
              77.7295589,
              13.0176872
            ],
            [
              77.7295589,
              13.0185234
            ],
            [
              77.7293015,
              13.0192761
            ],
            [
              77.7284431,
              13.0201959
            ],
            [
              77.7276707,
              13.0205304
            ],
            [
              77.726984,
              13.0206141
            ],
            [
              77.7259541,
              13.0204468
            ],
            [
              77.7235508,
              13.0213667
            ],
            [
              77.7226925,
              13.0214503
            ],
            [
              77.7214909,
              13.0211994
            ],
            [
              77.72089,
              13.021283
            ],
            [
              77.7206326,
              13.0217012
            ],
            [
              77.7202892,
              13.0231228
            ],
            [
              77.7194309,
              13.0240426
            ],
            [
              77.7183151,
              13.0243771
            ],
            [
              77.7177143,
              13.0249625
            ],
            [
              77.7171993,
              13.0252133
            ],
            [
              77.7162552,
              13.0253806
            ],
            [
              77.7155685,
              13.0252969
            ],
            [
              77.7147961,
              13.0249625
            ],
            [
              77.7141094,
              13.0242935
            ],
            [
              77.7137661,
              13.0236245
            ],
            [
              77.7136803,
              13.022621
            ],
            [
              77.7133369,
              13.0221193
            ],
            [
              77.7129936,
              13.021952
            ],
            [
              77.711792,
              13.0221193
            ],
            [
              77.7106762,
              13.021952
            ],
            [
              77.7093029,
              13.0211158
            ],
            [
              77.7082729,
              13.0200287
            ],
            [
              77.7056122,
              13.0202796
            ],
            [
              77.7037239,
              13.0200287
            ],
            [
              77.7032089,
              13.0202796
            ],
            [
              77.7019215,
              13.0202796
            ],
            [
              77.701664,
              13.0209485
            ],
            [
              77.7009773,
              13.0217012
            ],
            [
              77.7013206,
              13.0221193
            ],
            [
              77.7015781,
              13.0228719
            ],
            [
              77.7014923,
              13.0241262
            ],
            [
              77.7005482,
              13.0257987
            ],
            [
              77.6997757,
              13.0265513
            ],
            [
              77.6990032,
              13.0268858
            ],
            [
              77.6983166,
              13.0269694
            ],
            [
              77.6953125,
              13.0266349
            ],
            [
              77.6941967,
              13.0267185
            ],
            [
              77.6938534,
              13.027053
            ],
            [
              77.6914501,
              13.0313177
            ],
            [
              77.6905918,
              13.0322375
            ],
            [
              77.6891327,
              13.0328228
            ],
            [
              77.6869869,
              13.0333246
            ],
            [
              77.6836395,
              13.0332409
            ],
            [
              77.6834679,
              13.0334918
            ],
            [
              77.6834679,
              13.0342444
            ],
            [
              77.6836395,
              13.0346625
            ],
            [
              77.6836395,
              13.037171
            ],
            [
              77.6846695,
              13.0419372
            ],
            [
              77.684927,
              13.0457
            ],
            [
              77.6841545,
              13.0487101
            ],
            [
              77.6837254,
              13.0495462
            ],
            [
              77.6809788,
              13.0518038
            ],
            [
              77.679863,
              13.0523055
            ],
            [
              77.6786613,
              13.0523055
            ],
            [
              77.6782322,
              13.0525563
            ],
            [
              77.6784897,
              13.054145
            ],
            [
              77.6790905,
              13.056068
            ],
            [
              77.6790905,
              13.0569878
            ],
            [
              77.6787472,
              13.0578239
            ],
            [
              77.6791763,
              13.0589944
            ],
            [
              77.6791763,
              13.0600814
            ],
            [
              77.678833,
              13.0615864
            ],
            [
              77.6779747,
              13.0625061
            ],
            [
              77.6765156,
              13.0630914
            ],
            [
              77.6760864,
              13.0640947
            ],
            [
              77.6753998,
              13.0647635
            ],
            [
              77.6744556,
              13.0651816
            ],
            [
              77.6718807,
              13.0655996
            ],
            [
              77.6702499,
              13.0655996
            ],
            [
              77.6690483,
              13.0650144
            ],
            [
              77.6673317,
              13.0637602
            ],
            [
              77.6670742,
              13.0639274
            ],
            [
              77.6666451,
              13.065098
            ],
            [
              77.6658726,
              13.0658505
            ],
            [
              77.6651001,
              13.0661849
            ],
            [
              77.6644993,
              13.0661849
            ],
            [
              77.6637268,
              13.0664357
            ],
            [
              77.6626968,
              13.0671046
            ],
            [
              77.6607227,
              13.0675226
            ],
            [
              77.6596928,
              13.0681079
            ],
            [
              77.6592636,
              13.0688603
            ],
            [
              77.6591778,
              13.0695292
            ],
            [
              77.6581478,
              13.0719538
            ],
            [
              77.6581478,
              13.072539
            ],
            [
              77.6578903,
              13.0732915
            ],
            [
              77.657032,
              13.0742112
            ],
            [
              77.6559162,
              13.0749636
            ],
            [
              77.6549721,
              13.0751308
            ],
            [
              77.6541996,
              13.0750472
            ],
            [
              77.6527405,
              13.0742112
            ],
            [
              77.6512814,
              13.0743784
            ],
            [
              77.6497364,
              13.0739604
            ],
            [
              77.6492214,
              13.0742112
            ],
            [
              77.6503372,
              13.0751308
            ],
            [
              77.6505947,
              13.0756325
            ],
            [
              77.6516247,
              13.0756325
            ],
            [
              77.6523113,
              13.0759669
            ],
            [
              77.6526546,
              13.0758833
            ],
            [
              77.6535988,
              13.0760505
            ],
            [
              77.6541138,
              13.0763013
            ],
            [
              77.6548862,
              13.0770537
            ],
            [
              77.6553154,
              13.078057
            ],
            [
              77.6553154,
              13.0791439
            ],
            [
              77.6549721,
              13.0802307
            ],
            [
              77.6540279,
              13.081234
            ],
            [
              77.6532555,
              13.0815684
            ],
            [
              77.6522255,
              13.081652
            ],
            [
              77.6498222,
              13.081234
            ],
            [
              77.6493931,
              13.0813176
            ],
            [
              77.6473331,
              13.0841601
            ],
            [
              77.6470757,
              13.0851633
            ],
            [
              77.6462173,
              13.0860829
            ],
            [
              77.6454449,
              13.0864173
            ],
            [
              77.6428699,
              13.0866681
            ],
            [
              77.6425266,
              13.0870025
            ],
            [
              77.6473331,
              13.0968673
            ],
            [
              77.647419,
              13.0976197
            ],
            [
              77.6481056,
              13.0988736
            ],
            [
              77.6488781,
              13.1011308
            ],
            [
              77.6490498,
              13.1020503
            ],
            [
              77.6489639,
              13.1033879
            ],
            [
              77.6486206,
              13.1040566
            ],
            [
              77.647934,
              13.1047254
            ],
            [
              77.646904,
              13.1051434
            ],
            [
              77.6441574,
              13.1055613
            ],
            [
              77.6426983,
              13.1054777
            ],
            [
              77.6422691,
              13.1053106
            ],
            [
              77.6407242,
              13.1057285
            ],
            [
              77.6371193,
              13.1061465
            ],
            [
              77.636776,
              13.1064809
            ],
            [
              77.6368618,
              13.107484
            ],
            [
              77.637291,
              13.1084872
            ],
            [
              77.6374626,
              13.1099083
            ],
            [
              77.6380634,
              13.1119981
            ],
            [
              77.6379776,
              13.1135863
            ],
            [
              77.6354027,
              13.1179331
            ],
            [
              77.635231,
              13.1186018
            ],
            [
              77.634201,
              13.1196049
            ],
            [
              77.631197,
              13.1247039
            ],
            [
              77.630167,
              13.1258741
            ],
            [
              77.6258755,
              13.1272951
            ],
            [
              77.625103,
              13.1278802
            ],
            [
              77.6187515,
              13.1312237
            ],
            [
              77.6176357,
              13.1313909
            ],
            [
              77.6157475,
              13.1310565
            ],
            [
              77.6145458,
              13.1313909
            ],
            [
              77.6128292,
              13.1326447
            ],
            [
              77.6120567,
              13.132979
            ],
            [
              77.6065636,
              13.1337313
            ],
            [
              77.6051044,
              13.1340656
            ],
            [
              77.6029587,
              13.1342328
            ],
            [
              77.602272,
              13.1341492
            ],
            [
              77.6014996,
              13.1338149
            ],
            [
              77.5997829,
              13.1320596
            ],
            [
              77.5993538,
              13.131976
            ],
            [
              77.5976372,
              13.1325611
            ],
            [
              77.5959206,
              13.1328954
            ],
            [
              77.5937748,
              13.1328954
            ],
            [
              77.5915432,
              13.1331462
            ],
            [
              77.5905991,
              13.1330626
            ],
            [
              77.5898266,
              13.1332298
            ],
            [
              77.5864792,
              13.1331462
            ],
            [
              77.5854492,
              13.1333969
            ],
            [
              77.5845909,
              13.1333134
            ],
            [
              77.5842476,
              13.1344
            ],
            [
              77.5835609,
              13.135403
            ],
            [
              77.5821877,
              13.1400837
            ],
            [
              77.5805569,
              13.1417554
            ],
            [
              77.5797844,
              13.1420897
            ],
            [
              77.5790119,
              13.1421733
            ]
          ]
        ]
      }
    }
  ]
}