{
  "type": "FeatureCollection",
  "bbox": [
    76.8689346,
    10.9182693,
    77.0632553,
    11.1059788
  ],
  "features": [
    {
      "type": "Feature",
      "bbox": [
        76.8689346,
        10.9182693,
        77.0632553,
        11.1059788
      ],
      "properties": {
        "name": "Coimbatore",
        "source": "Google Maps selected-place raster outline",
        "zoom": 12,
        "vertices": 124,
        "approx_area_km2": 266.522,
        "closed_ring": true,
        "warning": "Reverse-traced from raster tiles; accuracy is limited by Web Mercator pixel resolution at the captured zoom."
      },
      "geometry": {
        "type": "Polygon",
        "coordinates": [
          [
            [
              77.039566,
              11.1046313
            ],
            [
              77.0340729,
              11.1056419
            ],
            [
              77.0261765,
              11.1046313
            ],
            [
              77.0213699,
              11.1019361
            ],
            [
              77.0172501,
              11.0978933
            ],
            [
              77.0155334,
              11.0948612
            ],
            [
              77.0103836,
              11.0968826
            ],
            [
              77.0045471,
              11.0978933
            ],
            [
              76.999054,
              11.0968826
            ],
            [
              76.9894409,
              11.0925028
            ],
            [
              76.985321,
              11.0978933
            ],
            [
              76.9791412,
              11.1032837
            ],
            [
              76.975708,
              11.1049682
            ],
            [
              76.9702148,
              11.1059788
            ],
            [
              76.9643784,
              11.1049682
            ],
            [
              76.9609451,
              11.1032837
            ],
            [
              76.9568253,
              11.0992409
            ],
            [
              76.9547653,
              11.0951981
            ],
            [
              76.954422,
              11.0921659
            ],
            [
              76.9482422,
              11.0884599
            ],
            [
              76.9369125,
              11.0861015
            ],
            [
              76.9338226,
              11.0864384
            ],
            [
              76.9283295,
              11.0854276
            ],
            [
              76.9238663,
              11.0834061
            ],
            [
              76.9197464,
              11.0793631
            ],
            [
              76.9173431,
              11.0736353
            ],
            [
              76.9173431,
              11.0675705
            ],
            [
              76.9194031,
              11.0621794
            ],
            [
              76.9156265,
              11.0527449
            ],
            [
              76.9156265,
              11.0473535
            ],
            [
              76.9166565,
              11.0439839
            ],
            [
              76.9183731,
              11.0412882
            ],
            [
              76.9121933,
              11.0372446
            ],
            [
              76.9084167,
              11.0335378
            ],
            [
              76.9049835,
              11.0365706
            ],
            [
              76.9015503,
              11.0382555
            ],
            [
              76.8957138,
              11.0392664
            ],
            [
              76.8802643,
              11.0365706
            ],
            [
              76.8768311,
              11.0348857
            ],
            [
              76.8727112,
              11.030842
            ],
            [
              76.869278,
              11.0237654
            ],
            [
              76.8689346,
              11.0166885
            ],
            [
              76.8706512,
              11.0119705
            ],
            [
              76.8754578,
              11.0069155
            ],
            [
              76.8816376,
              11.0045564
            ],
            [
              76.8891907,
              11.0035454
            ],
            [
              76.8970871,
              11.0038824
            ],
            [
              76.8988037,
              11.0028714
            ],
            [
              76.9070435,
              11.0011863
            ],
            [
              76.9135666,
              11.0025344
            ],
            [
              76.9173431,
              11.0018603
            ],
            [
              76.9190598,
              10.9883795
            ],
            [
              76.9211197,
              10.9843351
            ],
            [
              76.9252396,
              10.9802907
            ],
            [
              76.9286728,
              10.9786055
            ],
            [
              76.9345093,
              10.9775944
            ],
            [
              76.9372559,
              10.9728758
            ],
            [
              76.9362259,
              10.9708535
            ],
            [
              76.9303894,
              10.967483
            ],
            [
              76.9248962,
              10.967483
            ],
            [
              76.9187164,
              10.9651236
            ],
            [
              76.9142532,
              10.9607419
            ],
            [
              76.9128799,
              10.9583825
            ],
            [
              76.91185,
              10.9550118
            ],
            [
              76.91185,
              10.9475963
            ],
            [
              76.9128799,
              10.9398435
            ],
            [
              76.9149399,
              10.9357984
            ],
            [
              76.9190598,
              10.9317533
            ],
            [
              76.922493,
              10.9300679
            ],
            [
              76.9297028,
              10.9287195
            ],
            [
              76.9338226,
              10.9290566
            ],
            [
              76.9396591,
              10.9310792
            ],
            [
              76.9441223,
              10.9283824
            ],
            [
              76.9509888,
              10.927034
            ],
            [
              76.9530487,
              10.9273711
            ],
            [
              76.9585419,
              10.9246743
            ],
            [
              76.9633484,
              10.9209662
            ],
            [
              76.9667816,
              10.9192807
            ],
            [
              76.9722748,
              10.9182693
            ],
            [
              76.9781113,
              10.9192807
            ],
            [
              76.9815445,
              10.9209662
            ],
            [
              76.9860077,
              10.9253485
            ],
            [
              76.9880676,
              10.9293937
            ],
            [
              76.9915009,
              10.9327646
            ],
            [
              76.9939041,
              10.9371468
            ],
            [
              76.9993973,
              10.9435514
            ],
            [
              77.0035172,
              10.9526524
            ],
            [
              77.0038605,
              10.9597307
            ],
            [
              77.0028305,
              10.9631013
            ],
            [
              77.0014572,
              10.9654607
            ],
            [
              76.9973373,
              10.9695053
            ],
            [
              76.9942474,
              10.9708535
            ],
            [
              76.9942474,
              10.9715276
            ],
            [
              77.0000839,
              10.9725388
            ],
            [
              77.0042038,
              10.974561
            ],
            [
              77.008667,
              10.9782685
            ],
            [
              77.0151901,
              10.9809648
            ],
            [
              77.0381927,
              10.9846722
            ],
            [
              77.041626,
              10.9843351
            ],
            [
              77.0471191,
              10.9853462
            ],
            [
              77.0526123,
              10.9880425
            ],
            [
              77.0567322,
              10.9920868
            ],
            [
              77.0591354,
              10.9978162
            ],
            [
              77.0598221,
              11.0096115
            ],
            [
              77.0587921,
              11.0129815
            ],
            [
              77.0567322,
              11.0163515
            ],
            [
              77.0553589,
              11.0224174
            ],
            [
              77.0539856,
              11.0247763
            ],
            [
              77.0508957,
              11.0278092
            ],
            [
              77.0508957,
              11.030842
            ],
            [
              77.0553589,
              11.0332009
            ],
            [
              77.0608521,
              11.0385924
            ],
            [
              77.062912,
              11.0426361
            ],
            [
              77.0632553,
              11.0503862
            ],
            [
              77.061882,
              11.0540927
            ],
            [
              77.0622253,
              11.0618425
            ],
            [
              77.0598221,
              11.0675705
            ],
            [
              77.0557022,
              11.0716137
            ],
            [
              77.0498657,
              11.0743092
            ],
            [
              77.050209,
              11.0854276
            ],
            [
              77.0495224,
              11.0874491
            ],
            [
              77.0491791,
              11.0948612
            ],
            [
              77.0471191,
              11.098904
            ],
            [
              77.0429993,
              11.1029468
            ],
            [
              77.039566,
              11.1046313
            ]
          ]
        ]
      }
    }
  ]
}