{
  "type": "FeatureCollection",
  "bbox": [
    77.6489639,
    11.2859924,
    77.7387428,
    11.4075095
  ],
  "features": [
    {
      "type": "Feature",
      "bbox": [
        77.6489639,
        11.2859924,
        77.7387428,
        11.4075095
      ],
      "properties": {
        "name": "Erode",
        "source": "Google Maps selected-place raster outline",
        "zoom": 13,
        "vertices": 95,
        "approx_area_km2": 88.946,
        "closed_ring": true,
        "warning": "Reverse-traced from raster tiles; accuracy is limited by Web Mercator pixel resolution at the captured zoom."
      },
      "geometry": {
        "type": "Polygon",
        "coordinates": [
          [
            [
              77.6831245,
              11.4075095
            ],
            [
              77.6802063,
              11.4071729
            ],
            [
              77.6774597,
              11.4063316
            ],
            [
              77.6745415,
              11.4046488
            ],
            [
              77.6719666,
              11.4021248
            ],
            [
              77.669735,
              11.3980862
            ],
            [
              77.66922,
              11.3947206
            ],
            [
              77.6656151,
              11.3927013
            ],
            [
              77.6621819,
              11.3889991
            ],
            [
              77.6608086,
              11.3861383
            ],
            [
              77.6604652,
              11.3844555
            ],
            [
              77.6587486,
              11.3814264
            ],
            [
              77.658062,
              11.3789021
            ],
            [
              77.6544571,
              11.3768826
            ],
            [
              77.6508522,
              11.373012
            ],
            [
              77.6491356,
              11.3688047
            ],
            [
              77.6489639,
              11.3640924
            ],
            [
              77.6494789,
              11.3617363
            ],
            [
              77.6508522,
              11.3588752
            ],
            [
              77.6530838,
              11.3563507
            ],
            [
              77.6530838,
              11.3543311
            ],
            [
              77.6535988,
              11.3519748
            ],
            [
              77.6549721,
              11.3491137
            ],
            [
              77.656002,
              11.3477672
            ],
            [
              77.6549721,
              11.3452426
            ],
            [
              77.6544571,
              11.3417082
            ],
            [
              77.6534271,
              11.338342
            ],
            [
              77.6535988,
              11.3334609
            ],
            [
              77.6553154,
              11.329253
            ],
            [
              77.6577187,
              11.3250451
            ],
            [
              77.6620102,
              11.3205004
            ],
            [
              77.6647568,
              11.3189855
            ],
            [
              77.66819,
              11.3154507
            ],
            [
              77.6716232,
              11.3132625
            ],
            [
              77.6740265,
              11.3122526
            ],
            [
              77.6745415,
              11.308886
            ],
            [
              77.6766014,
              11.3051828
            ],
            [
              77.6757431,
              11.3021528
            ],
            [
              77.6759148,
              11.2967661
            ],
            [
              77.6766014,
              11.2945777
            ],
            [
              77.6784897,
              11.2913793
            ],
            [
              77.6810646,
              11.2888542
            ],
            [
              77.6839828,
              11.2871708
            ],
            [
              77.6867294,
              11.2863291
            ],
            [
              77.6896477,
              11.2859924
            ],
            [
              77.6932526,
              11.2864975
            ],
            [
              77.7002907,
              11.2890226
            ],
            [
              77.7018356,
              11.2900326
            ],
            [
              77.7045822,
              11.292726
            ],
            [
              77.7069855,
              11.2972711
            ],
            [
              77.7095604,
              11.2965978
            ],
            [
              77.7138519,
              11.2965978
            ],
            [
              77.7174568,
              11.2976078
            ],
            [
              77.7203751,
              11.2992911
            ],
            [
              77.7238083,
              11.3029945
            ],
            [
              77.7251816,
              11.3058561
            ],
            [
              77.7255249,
              11.307876
            ],
            [
              77.7277565,
              11.309391
            ],
            [
              77.7303314,
              11.3119159
            ],
            [
              77.7323914,
              11.3156191
            ],
            [
              77.7359962,
              11.3189855
            ],
            [
              77.7368546,
              11.3201638
            ],
            [
              77.7385712,
              11.3243718
            ],
            [
              77.7387428,
              11.329253
            ],
            [
              77.7382278,
              11.3316094
            ],
            [
              77.7359962,
              11.335649
            ],
            [
              77.7356529,
              11.3376687
            ],
            [
              77.7342796,
              11.34053
            ],
            [
              77.7308464,
              11.3442328
            ],
            [
              77.7286148,
              11.3455793
            ],
            [
              77.7308464,
              11.347094
            ],
            [
              77.7334213,
              11.3496186
            ],
            [
              77.7356529,
              11.3536579
            ],
            [
              77.7365112,
              11.3576971
            ],
            [
              77.7365112,
              11.3619046
            ],
            [
              77.7359962,
              11.3642607
            ],
            [
              77.7342796,
              11.3676266
            ],
            [
              77.7310181,
              11.3709925
            ],
            [
              77.7274132,
              11.3728437
            ],
            [
              77.7207184,
              11.3772192
            ],
            [
              77.7179718,
              11.3780606
            ],
            [
              77.7150536,
              11.3783972
            ],
            [
              77.7126503,
              11.3782289
            ],
            [
              77.7090454,
              11.3772192
            ],
            [
              77.7088737,
              11.3773875
            ],
            [
              77.710247,
              11.3800801
            ],
            [
              77.710762,
              11.3824361
            ],
            [
              77.710762,
              11.3861383
            ],
            [
              77.710247,
              11.3884943
            ],
            [
              77.7085304,
              11.3918599
            ],
            [
              77.7030373,
              11.3970765
            ],
            [
              77.7002907,
              11.4016199
            ],
            [
              77.6977158,
              11.404144
            ],
            [
              77.6947975,
              11.4058267
            ],
            [
              77.6911926,
              11.4068364
            ],
            [
              77.6831245,
              11.4075095
            ]
          ]
        ]
      }
    }
  ]
}