{
  "type": "FeatureCollection",
  "bbox": [
    77.5978088,
    12.9095367,
    77.6664734,
    12.9617358
  ],
  "features": [
    {
      "type": "Feature",
      "bbox": [
        77.5978088,
        12.9095367,
        77.6664734,
        12.9617358
      ],
      "properties": {
        "name": "Koramangala",
        "source": "Google Maps selected-place raster outline",
        "zoom": 10,
        "vertices": 14,
        "approx_area_km2": 29.204,
        "closed_ring": false,
        "extracted_at": "2026-08-25T13:58:44Z",
        "mode": "fast",
        "warning": "Reverse-traced from raster tiles; accuracy is limited by Web Mercator pixel resolution at the captured zoom."
      },
      "geometry": {
        "type": "Polygon",
        "coordinates": [
          [
            [
              77.5991821,
              12.9429989
            ],
            [
              77.5978088,
              12.93363
            ],
            [
              77.6046753,
              12.9202451
            ],
            [
              77.6156616,
              12.9108753
            ],
            [
              77.6252747,
              12.9095367
            ],
            [
              77.6321411,
              12.9122138
            ],
            [
              77.6417542,
              12.9108753
            ],
            [
              77.6554871,
              12.9135524
            ],
            [
              77.6664734,
              12.9255991
            ],
            [
              77.6664734,
              12.93363
            ],
            [
              77.6596069,
              12.9416605
            ],
            [
              77.645874,
              12.9429989
            ],
            [
              77.6266479,
              12.9617358
            ],
            [
              77.6156616,
              12.9617358
            ],
            [
              77.5991821,
              12.9429989
            ]
          ]
        ]
      }
    }
  ]
}