{
  "type": "FeatureCollection",
  "bbox": [
    77.6101899,
    12.9370806,
    77.6295018,
    12.9518866
  ],
  "features": [
    {
      "type": "Feature",
      "bbox": [
        77.6101899,
        12.9370806,
        77.6295018,
        12.9518866
      ],
      "properties": {
        "name": "Koramangala",
        "source": "Google Maps selected-place raster outline",
        "zoom": 16,
        "vertices": 282,
        "approx_area_km2": 0.561,
        "closed_ring": false,
        "warning": "Reverse-traced from raster tiles; accuracy is limited by Web Mercator pixel resolution at the captured zoom."
      },
      "geometry": {
        "type": "Polygon",
        "coordinates": [
          [
            [
              77.6115203,
              12.9495236
            ],
            [
              77.6114345,
              12.9493772
            ],
            [
              77.6114345,
              12.9492726
            ],
            [
              77.6115417,
              12.9491262
            ],
            [
              77.6116276,
              12.9491053
            ],
            [
              77.6119494,
              12.9491471
            ],
            [
              77.6127005,
              12.9491471
            ],
            [
              77.612958,
              12.9491053
            ],
            [
              77.6139235,
              12.9491262
            ],
            [
              77.614181,
              12.9490844
            ],
            [
              77.6150608,
              12.9490844
            ],
            [
              77.61549,
              12.9489171
            ],
            [
              77.6157689,
              12.9486871
            ],
            [
              77.615962,
              12.9483943
            ],
            [
              77.6160693,
              12.9480179
            ],
            [
              77.6160479,
              12.9476624
            ],
            [
              77.6158547,
              12.9470559
            ],
            [
              77.6158547,
              12.9466586
            ],
            [
              77.6159191,
              12.9464077
            ],
            [
              77.6159191,
              12.9461985
            ],
            [
              77.615962,
              12.9459476
            ],
            [
              77.6163054,
              12.9452784
            ],
            [
              77.6163697,
              12.9450065
            ],
            [
              77.6163697,
              12.9447347
            ],
            [
              77.6162195,
              12.9442746
            ],
            [
              77.6160693,
              12.9440655
            ],
            [
              77.6156616,
              12.9437309
            ],
            [
              77.6155972,
              12.9435218
            ],
            [
              77.6153827,
              12.9431872
            ],
            [
              77.6151037,
              12.9429571
            ],
            [
              77.6147819,
              12.9428107
            ],
            [
              77.6144385,
              12.9427689
            ],
            [
              77.614181,
              12.9427898
            ],
            [
              77.6137733,
              12.9429362
            ],
            [
              77.6134086,
              12.9428735
            ],
            [
              77.6130223,
              12.9429153
            ],
            [
              77.6125503,
              12.9431662
            ],
            [
              77.6122499,
              12.9435218
            ],
            [
              77.6120353,
              12.9435845
            ],
            [
              77.6115417,
              12.9436263
            ],
            [
              77.6111984,
              12.9437518
            ],
            [
              77.6107264,
              12.9436681
            ],
            [
              77.610662,
              12.9436054
            ],
            [
              77.6105547,
              12.9431244
            ],
            [
              77.6105976,
              12.9429571
            ],
            [
              77.610662,
              12.9428944
            ],
            [
              77.6108551,
              12.9428526
            ],
            [
              77.6112199,
              12.9426853
            ],
            [
              77.6116061,
              12.9423297
            ],
            [
              77.6122928,
              12.9410541
            ],
            [
              77.6123571,
              12.9407822
            ],
            [
              77.6123571,
              12.9404894
            ],
            [
              77.6122499,
              12.940113
            ],
            [
              77.6120567,
              12.9398202
            ],
            [
              77.6104259,
              12.9386073
            ],
            [
              77.6102114,
              12.9383981
            ],
            [
              77.6101899,
              12.9382727
            ],
            [
              77.6103616,
              12.9380426
            ],
            [
              77.6104474,
              12.9377917
            ],
            [
              77.6105332,
              12.9376871
            ],
            [
              77.6107049,
              12.9376871
            ],
            [
              77.6107693,
              12.9377498
            ],
            [
              77.610898,
              12.9383354
            ],
            [
              77.6112199,
              12.9387537
            ],
            [
              77.611649,
              12.9390674
            ],
            [
              77.6119065,
              12.9391928
            ],
            [
              77.6124859,
              12.9392974
            ],
            [
              77.6127434,
              12.939632
            ],
            [
              77.6131082,
              12.9399248
            ],
            [
              77.6131725,
              12.9400921
            ],
            [
              77.6131725,
              12.9402176
            ],
            [
              77.6129794,
              12.9406149
            ],
            [
              77.612915,
              12.9408868
            ],
            [
              77.612915,
              12.9411377
            ],
            [
              77.6130652,
              12.9415978
            ],
            [
              77.6132154,
              12.9418069
            ],
            [
              77.61343,
              12.9419951
            ],
            [
              77.6138163,
              12.9421834
            ],
            [
              77.6141596,
              12.9422252
            ],
            [
              77.6144171,
              12.9422043
            ],
            [
              77.6146317,
              12.9421415
            ],
            [
              77.6155543,
              12.9416815
            ],
            [
              77.6158977,
              12.9415978
            ],
            [
              77.6160479,
              12.9416815
            ],
            [
              77.6160908,
              12.9417651
            ],
            [
              77.6161122,
              12.942037
            ],
            [
              77.6160693,
              12.9430617
            ],
            [
              77.6161337,
              12.9433335
            ],
            [
              77.6163054,
              12.9436472
            ],
            [
              77.6164985,
              12.9438564
            ],
            [
              77.6166058,
              12.9441073
            ],
            [
              77.6168418,
              12.9444001
            ],
            [
              77.6169276,
              12.9448392
            ],
            [
              77.6169276,
              12.9450484
            ],
            [
              77.6166916,
              12.945362
            ],
            [
              77.6163697,
              12.9460522
            ],
            [
              77.616241,
              12.9466377
            ],
            [
              77.616241,
              12.9469723
            ],
            [
              77.6164556,
              12.9476833
            ],
            [
              77.6165628,
              12.9482061
            ],
            [
              77.6167774,
              12.9485825
            ],
            [
              77.6171637,
              12.9490426
            ],
            [
              77.6172924,
              12.9495445
            ],
            [
              77.6176143,
              12.9499627
            ],
            [
              77.6181936,
              12.9502555
            ],
            [
              77.6185369,
              12.9503182
            ],
            [
              77.6187301,
              12.9504646
            ],
            [
              77.6190519,
              12.950611
            ],
            [
              77.6193953,
              12.9506528
            ],
            [
              77.6197386,
              12.950611
            ],
            [
              77.6200604,
              12.9504646
            ],
            [
              77.6203609,
              12.9502137
            ],
            [
              77.6205325,
              12.9499418
            ],
            [
              77.6208115,
              12.9496281
            ],
            [
              77.6214337,
              12.9493354
            ],
            [
              77.6215625,
              12.9492308
            ],
            [
              77.6216912,
              12.9492099
            ],
            [
              77.6217127,
              12.9491053
            ],
            [
              77.6219487,
              12.9488962
            ],
            [
              77.6228285,
              12.947746
            ],
            [
              77.6231718,
              12.9474742
            ],
            [
              77.6235151,
              12.9470768
            ],
            [
              77.6236224,
              12.9468468
            ],
            [
              77.6237726,
              12.946094
            ],
            [
              77.6239014,
              12.945843
            ],
            [
              77.6241803,
              12.9456548
            ],
            [
              77.6249743,
              12.9452575
            ],
            [
              77.6253176,
              12.9450274
            ],
            [
              77.6255322,
              12.9448183
            ],
            [
              77.6257467,
              12.9445256
            ],
            [
              77.6258969,
              12.9440655
            ],
            [
              77.6259398,
              12.9429989
            ],
            [
              77.6259184,
              12.9424552
            ],
            [
              77.6258326,
              12.9421834
            ],
            [
              77.6257038,
              12.9419742
            ],
            [
              77.6253605,
              12.9416605
            ],
            [
              77.6250386,
              12.9415142
            ],
            [
              77.6246953,
              12.9414723
            ],
            [
              77.6244164,
              12.9414932
            ],
            [
              77.6241589,
              12.9415769
            ],
            [
              77.6239443,
              12.9415769
            ],
            [
              77.6236868,
              12.9416605
            ],
            [
              77.6234508,
              12.9416396
            ],
            [
              77.6229787,
              12.9417233
            ],
            [
              77.6228285,
              12.9416605
            ],
            [
              77.6224852,
              12.9416187
            ],
            [
              77.6217985,
              12.9416605
            ],
            [
              77.6213264,
              12.9415978
            ],
            [
              77.6211762,
              12.9414514
            ],
            [
              77.6211977,
              12.9413259
            ],
            [
              77.6213479,
              12.9412423
            ],
            [
              77.6215625,
              12.9412632
            ],
            [
              77.6219058,
              12.9412214
            ],
            [
              77.6222277,
              12.941075
            ],
            [
              77.6224422,
              12.9409077
            ],
            [
              77.6228929,
              12.9408659
            ],
            [
              77.6233649,
              12.9406149
            ],
            [
              77.623558,
              12.9404058
            ],
            [
              77.6237297,
              12.9400921
            ],
            [
              77.6237941,
              12.9398202
            ],
            [
              77.6238155,
              12.9394647
            ],
            [
              77.624073,
              12.9392765
            ],
            [
              77.6249743,
              12.9392138
            ],
            [
              77.6254463,
              12.9389628
            ],
            [
              77.6256824,
              12.9387118
            ],
            [
              77.6259398,
              12.9382099
            ],
            [
              77.6262832,
              12.9378126
            ],
            [
              77.6264548,
              12.9375407
            ],
            [
              77.6267338,
              12.9372061
            ],
            [
              77.6269054,
              12.9370806
            ],
            [
              77.6270771,
              12.9370806
            ],
            [
              77.6276994,
              12.9375407
            ],
            [
              77.6284933,
              12.9379381
            ],
            [
              77.6288795,
              12.9382518
            ],
            [
              77.6288795,
              12.93844
            ],
            [
              77.6288152,
              12.9385027
            ],
            [
              77.628665,
              12.9385236
            ],
            [
              77.628386,
              12.9384191
            ],
            [
              77.6281929,
              12.9382727
            ],
            [
              77.627871,
              12.9381263
            ],
            [
              77.6275277,
              12.9380845
            ],
            [
              77.6272917,
              12.9381054
            ],
            [
              77.6267982,
              12.9383145
            ],
            [
              77.6265836,
              12.9385027
            ],
            [
              77.6264334,
              12.9387118
            ],
            [
              77.6262832,
              12.9391719
            ],
            [
              77.6262832,
              12.9394438
            ],
            [
              77.626369,
              12.9398202
            ],
            [
              77.626605,
              12.9402176
            ],
            [
              77.6267767,
              12.9403849
            ],
            [
              77.6271415,
              12.9406149
            ],
            [
              77.6272273,
              12.9407195
            ],
            [
              77.6271415,
              12.9414305
            ],
            [
              77.6267552,
              12.941786
            ],
            [
              77.626605,
              12.9419951
            ],
            [
              77.6264763,
              12.9423507
            ],
            [
              77.6264548,
              12.9427062
            ],
            [
              77.626605,
              12.9431662
            ],
            [
              77.6267552,
              12.9433754
            ],
            [
              77.6270342,
              12.9436054
            ],
            [
              77.6273561,
              12.9437518
            ],
            [
              77.6276994,
              12.9437936
            ],
            [
              77.6283216,
              12.9437727
            ],
            [
              77.6286435,
              12.9436681
            ],
            [
              77.628901,
              12.9437518
            ],
            [
              77.629416,
              12.9437936
            ],
            [
              77.6295018,
              12.9438982
            ],
            [
              77.6295018,
              12.9439818
            ],
            [
              77.6293945,
              12.9442537
            ],
            [
              77.6293087,
              12.9443373
            ],
            [
              77.6288581,
              12.9443583
            ],
            [
              77.6283002,
              12.9444837
            ],
            [
              77.6275921,
              12.9444837
            ],
            [
              77.6270556,
              12.9443792
            ],
            [
              77.6267123,
              12.9444001
            ],
            [
              77.6262832,
              12.9445674
            ],
            [
              77.6259828,
              12.9448183
            ],
            [
              77.6258326,
              12.9450274
            ],
            [
              77.6255536,
              12.9452993
            ],
            [
              77.6246953,
              12.9457803
            ],
            [
              77.6243305,
              12.9460731
            ],
            [
              77.6240945,
              12.9464704
            ],
            [
              77.6240301,
              12.9468259
            ],
            [
              77.6237726,
              12.9474742
            ],
            [
              77.6237082,
              12.947746
            ],
            [
              77.6237082,
              12.9480388
            ],
            [
              77.6238155,
              12.9484152
            ],
            [
              77.6240087,
              12.948708
            ],
            [
              77.6242876,
              12.948938
            ],
            [
              77.6246095,
              12.9490844
            ],
            [
              77.6249528,
              12.9491262
            ],
            [
              77.6258755,
              12.9491262
            ],
            [
              77.6263261,
              12.9490426
            ],
            [
              77.6267123,
              12.9491053
            ],
            [
              77.6271415,
              12.9490426
            ],
            [
              77.6273346,
              12.9490635
            ],
            [
              77.6275063,
              12.949189
            ],
            [
              77.6275706,
              12.9493144
            ],
            [
              77.6275706,
              12.9495026
            ],
            [
              77.6274204,
              12.9497118
            ],
            [
              77.6271415,
              12.9497745
            ],
            [
              77.6268411,
              12.949649
            ],
            [
              77.6262617,
              12.9495863
            ],
            [
              77.6258326,
              12.949649
            ],
            [
              77.6247597,
              12.9495654
            ],
            [
              77.6243949,
              12.9496281
            ],
            [
              77.6242447,
              12.9495863
            ],
            [
              77.6238585,
              12.9491053
            ],
            [
              77.6234937,
              12.9488962
            ],
            [
              77.6230431,
              12.9488126
            ],
            [
              77.6226783,
              12.9488544
            ],
            [
              77.622292,
              12.9490426
            ],
            [
              77.6219487,
              12.9493354
            ],
            [
              77.6218414,
              12.9493354
            ],
            [
              77.6217985,
              12.9494608
            ],
            [
              77.621541,
              12.9497327
            ],
            [
              77.6213479,
              12.9500254
            ],
            [
              77.6212406,
              12.9504019
            ],
            [
              77.6212406,
              12.9506528
            ],
            [
              77.6213264,
              12.9510083
            ],
            [
              77.6214767,
              12.9513011
            ],
            [
              77.6214767,
              12.9513847
            ],
            [
              77.6213479,
              12.951552
            ],
            [
              77.6203609,
              12.9518448
            ],
            [
              77.6198244,
              12.951782
            ],
            [
              77.6194811,
              12.9518239
            ],
            [
              77.6193094,
              12.9518866
            ],
            [
              77.6190948,
              12.9517611
            ],
            [
              77.6189446,
              12.9513847
            ],
            [
              77.6186228,
              12.9510083
            ],
            [
              77.6176786,
              12.9505273
            ],
            [
              77.6172709,
              12.9504855
            ],
            [
              77.6156616,
              12.9506946
            ],
            [
              77.615211,
              12.9506946
            ],
            [
              77.6147604,
              12.9505064
            ],
            [
              77.6141596,
              12.9504019
            ],
            [
              77.6134086,
              12.9501927
            ],
            [
              77.612915,
              12.9501927
            ],
            [
              77.6125073,
              12.9503391
            ],
            [
              77.6123571,
              12.9502555
            ],
            [
              77.6122499,
              12.9500673
            ],
            [
              77.6120567,
              12.9498582
            ],
            [
              77.6115203,
              12.9495236
            ]
          ]
        ]
      }
    }
  ]
}