{
  "type": "FeatureCollection",
  "bbox": [
    77.6272917,
    12.9639106,
    77.6449728,
    12.972442
  ],
  "features": [
    {
      "type": "Feature",
      "bbox": [
        77.6272917,
        12.9639106,
        77.6449728,
        12.972442
      ],
      "properties": {
        "name": "Koramangala",
        "source": "Google Maps selected-place raster outline",
        "zoom": 15,
        "vertices": 52,
        "approx_area_km2": 0.797,
        "closed_ring": false,
        "warning": "Reverse-traced from raster tiles; accuracy is limited by Web Mercator pixel resolution at the captured zoom."
      },
      "geometry": {
        "type": "Polygon",
        "coordinates": [
          [
            [
              77.6272917,
              12.9650816
            ],
            [
              77.6275921,
              12.9646634
            ],
            [
              77.6278925,
              12.9645379
            ],
            [
              77.6285791,
              12.9639524
            ],
            [
              77.6287508,
              12.9639106
            ],
            [
              77.6307678,
              12.9639106
            ],
            [
              77.6315403,
              12.9642451
            ],
            [
              77.6318836,
              12.964287
            ],
            [
              77.6326561,
              12.964747
            ],
            [
              77.6332998,
              12.9649143
            ],
            [
              77.6335144,
              12.965207
            ],
            [
              77.6335144,
              12.965458
            ],
            [
              77.6327848,
              12.9661271
            ],
            [
              77.6324844,
              12.9665453
            ],
            [
              77.6322269,
              12.9672563
            ],
            [
              77.632184,
              12.9679672
            ],
            [
              77.6323986,
              12.96872
            ],
            [
              77.6327848,
              12.9693055
            ],
            [
              77.6333427,
              12.9697655
            ],
            [
              77.634201,
              12.9701001
            ],
            [
              77.6359177,
              12.9701001
            ],
            [
              77.636776,
              12.9697655
            ],
            [
              77.6373339,
              12.9693055
            ],
            [
              77.6377201,
              12.96872
            ],
            [
              77.6379347,
              12.9679672
            ],
            [
              77.6379347,
              12.9672981
            ],
            [
              77.6381063,
              12.967089
            ],
            [
              77.6385355,
              12.9669217
            ],
            [
              77.6398659,
              12.9669635
            ],
            [
              77.6403809,
              12.9675072
            ],
            [
              77.6408529,
              12.9678418
            ],
            [
              77.6411104,
              12.9685527
            ],
            [
              77.6416683,
              12.9692218
            ],
            [
              77.6426125,
              12.9697237
            ],
            [
              77.6437712,
              12.9698073
            ],
            [
              77.6442003,
              12.9703928
            ],
            [
              77.6449299,
              12.9710201
            ],
            [
              77.6449728,
              12.971271
            ],
            [
              77.6448011,
              12.9716056
            ],
            [
              77.6446724,
              12.972442
            ],
            [
              77.6306391,
              12.972442
            ],
            [
              77.6305103,
              12.9716056
            ],
            [
              77.6299953,
              12.9707692
            ],
            [
              77.6300383,
              12.9705183
            ],
            [
              77.6305532,
              12.9698073
            ],
            [
              77.6307678,
              12.9690546
            ],
            [
              77.6307678,
              12.9685527
            ],
            [
              77.6305532,
              12.9677999
            ],
            [
              77.630167,
              12.9672144
            ],
            [
              77.6296949,
              12.9667962
            ],
            [
              77.6275921,
              12.9658762
            ],
            [
              77.6272917,
              12.965458
            ],
            [
              77.6272917,
              12.9650816
            ]
          ]
        ]
      }
    }
  ]
}