{
  "type": "FeatureCollection",
  "bbox": [
    77.6346624,
    12.9241874,
    77.6541889,
    12.9361082
  ],
  "features": [
    {
      "type": "Feature",
      "bbox": [
        77.6346624,
        12.9241874,
        77.6541889,
        12.9361082
      ],
      "properties": {
        "name": "Koramangala",
        "source": "Google Maps selected-place raster outline",
        "zoom": 17,
        "vertices": 253,
        "approx_area_km2": 0.079,
        "closed_ring": false,
        "warning": "Reverse-traced from raster tiles; accuracy is limited by Web Mercator pixel resolution at the captured zoom."
      },
      "geometry": {
        "type": "Polygon",
        "coordinates": [
          [
            [
              77.6346624,
              12.9360664
            ],
            [
              77.6346624,
              12.9359722
            ],
            [
              77.6349521,
              12.9356376
            ],
            [
              77.6348984,
              12.9356167
            ],
            [
              77.6348448,
              12.935554
            ],
            [
              77.6348662,
              12.935418
            ],
            [
              77.6349199,
              12.9353553
            ],
            [
              77.6350164,
              12.9353553
            ],
            [
              77.6350379,
              12.9353135
            ],
            [
              77.6350272,
              12.9352717
            ],
            [
              77.6349735,
              12.9352926
            ],
            [
              77.6348662,
              12.9352717
            ],
            [
              77.6348233,
              12.9352194
            ],
            [
              77.6348019,
              12.9350625
            ],
            [
              77.6348984,
              12.9349057
            ],
            [
              77.6349843,
              12.9349057
            ],
            [
              77.6350272,
              12.934958
            ],
            [
              77.6350272,
              12.9349998
            ],
            [
              77.6350808,
              12.9350521
            ],
            [
              77.6351345,
              12.9348743
            ],
            [
              77.6351881,
              12.9348116
            ],
            [
              77.6353061,
              12.9348011
            ],
            [
              77.6357567,
              12.9349057
            ],
            [
              77.635864,
              12.9348952
            ],
            [
              77.6372588,
              12.9336718
            ],
            [
              77.6373875,
              12.933494
            ],
            [
              77.6374197,
              12.9333685
            ],
            [
              77.6375163,
              12.9332431
            ],
            [
              77.6375592,
              12.9331385
            ],
            [
              77.6376128,
              12.9330862
            ],
            [
              77.6376879,
              12.932898
            ],
            [
              77.637763,
              12.932783
            ],
            [
              77.6377523,
              12.9327621
            ],
            [
              77.6376772,
              12.9328143
            ],
            [
              77.6375914,
              12.9328143
            ],
            [
              77.6375484,
              12.9327621
            ],
            [
              77.6375699,
              12.9326889
            ],
            [
              77.6375484,
              12.9326575
            ],
            [
              77.6375592,
              12.9325843
            ],
            [
              77.6375914,
              12.9325529
            ],
            [
              77.6376772,
              12.9325529
            ],
            [
              77.637763,
              12.9326784
            ],
            [
              77.6377738,
              12.9327516
            ],
            [
              77.6378918,
              12.9326366
            ],
            [
              77.6379561,
              12.9326157
            ],
            [
              77.6380205,
              12.9325425
            ],
            [
              77.6380849,
              12.9325111
            ],
            [
              77.6380849,
              12.9323647
            ],
            [
              77.6381278,
              12.9322706
            ],
            [
              77.6381278,
              12.9322183
            ],
            [
              77.638042,
              12.9321033
            ],
            [
              77.6380205,
              12.9320092
            ],
            [
              77.6381171,
              12.9318628
            ],
            [
              77.6381922,
              12.9316537
            ],
            [
              77.6383209,
              12.931455
            ],
            [
              77.638557,
              12.9311726
            ],
            [
              77.638675,
              12.930953
            ],
            [
              77.6388252,
              12.9307962
            ],
            [
              77.6393402,
              12.9305661
            ],
            [
              77.6394045,
              12.9305557
            ],
            [
              77.6394582,
              12.9305139
            ],
            [
              77.6395547,
              12.930493
            ],
            [
              77.6405525,
              12.9299806
            ],
            [
              77.6410139,
              12.9300119
            ],
            [
              77.6411426,
              12.9300433
            ],
            [
              77.6413465,
              12.9301583
            ],
            [
              77.6414001,
              12.9301374
            ],
            [
              77.6415718,
              12.9301374
            ],
            [
              77.6419044,
              12.9299074
            ],
            [
              77.6419258,
              12.9297819
            ],
            [
              77.6419687,
              12.9297191
            ],
            [
              77.6420116,
              12.9295518
            ],
            [
              77.6419795,
              12.92928
            ],
            [
              77.6420224,
              12.9292277
            ],
            [
              77.643739,
              12.9285584
            ],
            [
              77.6439106,
              12.9285062
            ],
            [
              77.6441681,
              12.9284748
            ],
            [
              77.6443934,
              12.9285271
            ],
            [
              77.6446295,
              12.928663
            ],
            [
              77.6447797,
              12.9287989
            ],
            [
              77.6451123,
              12.929029
            ],
            [
              77.6451874,
              12.9291022
            ],
            [
              77.645241,
              12.9291231
            ],
            [
              77.6453161,
              12.9291963
            ],
            [
              77.6455522,
              12.9292695
            ],
            [
              77.646035,
              12.9288199
            ],
            [
              77.6462173,
              12.9286003
            ],
            [
              77.6464319,
              12.9283911
            ],
            [
              77.64714,
              12.9278892
            ],
            [
              77.6475692,
              12.9278892
            ],
            [
              77.647934,
              12.9275441
            ],
            [
              77.6482022,
              12.9273873
            ],
            [
              77.6483953,
              12.9273036
            ],
            [
              77.6485455,
              12.9273245
            ],
            [
              77.6486206,
              12.9273141
            ],
            [
              77.6487601,
              12.9273454
            ],
            [
              77.6507342,
              12.9286421
            ],
            [
              77.6513243,
              12.9289872
            ],
            [
              77.651968,
              12.9288931
            ],
            [
              77.6521504,
              12.9288931
            ],
            [
              77.6532018,
              12.9296355
            ],
            [
              77.6532447,
              12.929646
            ],
            [
              77.6533628,
              12.9297505
            ],
            [
              77.6534271,
              12.9297714
            ],
            [
              77.65347,
              12.929761
            ],
            [
              77.6535237,
              12.9297819
            ],
            [
              77.6535773,
              12.9297714
            ],
            [
              77.6538992,
              12.9298133
            ],
            [
              77.6539421,
              12.9297087
            ],
            [
              77.653631,
              12.9288931
            ],
            [
              77.6535022,
              12.9286107
            ],
            [
              77.6534593,
              12.9284539
            ],
            [
              77.6532876,
              12.9281297
            ],
            [
              77.6531374,
              12.9277742
            ],
            [
              77.6530945,
              12.9277219
            ],
            [
              77.6530302,
              12.9275441
            ],
            [
              77.6526117,
              12.9270004
            ],
            [
              77.6527083,
              12.9254423
            ],
            [
              77.6525044,
              12.9251077
            ],
            [
              77.6520109,
              12.9251704
            ],
            [
              77.6518929,
              12.9251599
            ],
            [
              77.6518393,
              12.9251077
            ],
            [
              77.6518071,
              12.9250345
            ],
            [
              77.6518071,
              12.9249822
            ],
            [
              77.6518393,
              12.9249403
            ],
            [
              77.6518071,
              12.9249299
            ],
            [
              77.6517534,
              12.9248567
            ],
            [
              77.6516461,
              12.9243861
            ],
            [
              77.6511526,
              12.9244489
            ],
            [
              77.6510882,
              12.9244384
            ],
            [
              77.6509809,
              12.9244698
            ],
            [
              77.6509273,
              12.9244593
            ],
            [
              77.6508522,
              12.9244802
            ],
            [
              77.6507986,
              12.9244593
            ],
            [
              77.6507235,
              12.9244907
            ],
            [
              77.6504338,
              12.9245221
            ],
            [
              77.6503909,
              12.9245116
            ],
            [
              77.6500797,
              12.9246371
            ],
            [
              77.6497257,
              12.9247103
            ],
            [
              77.6495755,
              12.9247626
            ],
            [
              77.6495326,
              12.9247521
            ],
            [
              77.6494896,
              12.9247103
            ],
            [
              77.6494789,
              12.9246371
            ],
            [
              77.6495218,
              12.9245848
            ],
            [
              77.649951,
              12.9244907
            ],
            [
              77.6503372,
              12.9243443
            ],
            [
              77.6503801,
              12.9243547
            ],
            [
              77.6506269,
              12.9243129
            ],
            [
              77.6507664,
              12.9243234
            ],
            [
              77.650938,
              12.9242815
            ],
            [
              77.6510561,
              12.924292
            ],
            [
              77.6511419,
              12.9242606
            ],
            [
              77.6511955,
              12.9242711
            ],
            [
              77.6513135,
              12.9242397
            ],
            [
              77.6514316,
              12.9242397
            ],
            [
              77.6517427,
              12.9241874
            ],
            [
              77.6517856,
              12.9241979
            ],
            [
              77.6518393,
              12.9242711
            ],
            [
              77.6518393,
              12.9243861
            ],
            [
              77.6519465,
              12.9248253
            ],
            [
              77.6519251,
              12.924909
            ],
            [
              77.6520002,
              12.9249822
            ],
            [
              77.6525581,
              12.9249194
            ],
            [
              77.652601,
              12.9249299
            ],
            [
              77.6526761,
              12.9250135
            ],
            [
              77.6529014,
              12.9254109
            ],
            [
              77.6528049,
              12.9269481
            ],
            [
              77.6531589,
              12.9273977
            ],
            [
              77.653234,
              12.9275232
            ],
            [
              77.6536953,
              12.9285166
            ],
            [
              77.6537812,
              12.9287885
            ],
            [
              77.6538241,
              12.9288408
            ],
            [
              77.6538348,
              12.928914
            ],
            [
              77.6538885,
              12.9290081
            ],
            [
              77.6539528,
              12.9292277
            ],
            [
              77.6541889,
              12.9298133
            ],
            [
              77.6541889,
              12.9299074
            ],
            [
              77.6541245,
              12.9300015
            ],
            [
              77.6540494,
              12.9300119
            ],
            [
              77.6532984,
              12.9299283
            ],
            [
              77.652086,
              12.9290708
            ],
            [
              77.6516032,
              12.9291231
            ],
            [
              77.6513565,
              12.9291754
            ],
            [
              77.6512492,
              12.9291649
            ],
            [
              77.6506162,
              12.9287885
            ],
            [
              77.6496077,
              12.9281193
            ],
            [
              77.6495326,
              12.9280879
            ],
            [
              77.6493716,
              12.9279624
            ],
            [
              77.6486742,
              12.9275128
            ],
            [
              77.6486099,
              12.9274918
            ],
            [
              77.648524,
              12.9275023
            ],
            [
              77.6484168,
              12.9274814
            ],
            [
              77.648052,
              12.9276905
            ],
            [
              77.6476657,
              12.9280565
            ],
            [
              77.6472044,
              12.928067
            ],
            [
              77.6469576,
              12.9282656
            ],
            [
              77.6468825,
              12.928297
            ],
            [
              77.6465499,
              12.9285375
            ],
            [
              77.6463032,
              12.9287885
            ],
            [
              77.6462281,
              12.9288931
            ],
            [
              77.6456273,
              12.9294473
            ],
            [
              77.6455522,
              12.9294577
            ],
            [
              77.6453698,
              12.929395
            ],
            [
              77.645241,
              12.9293741
            ],
            [
              77.644372,
              12.9287153
            ],
            [
              77.6441896,
              12.928663
            ],
            [
              77.6439321,
              12.9286839
            ],
            [
              77.6421833,
              12.9293636
            ],
            [
              77.6422048,
              12.9295832
            ],
            [
              77.6420653,
              12.9300119
            ],
            [
              77.641679,
              12.9302943
            ],
            [
              77.6415932,
              12.9303152
            ],
            [
              77.6412928,
              12.9303256
            ],
            [
              77.6411426,
              12.9302734
            ],
            [
              77.641046,
              12.9302106
            ],
            [
              77.6408744,
              12.9301688
            ],
            [
              77.6406384,
              12.9301583
            ],
            [
              77.6397908,
              12.9305661
            ],
            [
              77.6395977,
              12.9306812
            ],
            [
              77.6392972,
              12.9307857
            ],
            [
              77.6389003,
              12.930974
            ],
            [
              77.6386857,
              12.9313086
            ],
            [
              77.6383853,
              12.9317059
            ],
            [
              77.6383209,
              12.9318837
            ],
            [
              77.6382244,
              12.9320301
            ],
            [
              77.6383209,
              12.9321869
            ],
            [
              77.6383209,
              12.9323124
            ],
            [
              77.6382673,
              12.9324065
            ],
            [
              77.6382673,
              12.932532
            ],
            [
              77.6382136,
              12.9325738
            ],
            [
              77.6382029,
              12.9326261
            ],
            [
              77.6381278,
              12.9326993
            ],
            [
              77.6380634,
              12.9327202
            ],
            [
              77.6379454,
              12.9328353
            ],
            [
              77.6378381,
              12.9330444
            ],
            [
              77.6377523,
              12.933149
            ],
            [
              77.6377523,
              12.9331908
            ],
            [
              77.6376021,
              12.9334522
            ],
            [
              77.637527,
              12.93363
            ],
            [
              77.6374197,
              12.9337554
            ],
            [
              77.6373875,
              12.9338286
            ],
            [
              77.6373446,
              12.9338705
            ],
            [
              77.6373017,
              12.9338809
            ],
            [
              77.6368296,
              12.9343096
            ],
            [
              77.6359391,
              12.9350625
            ],
            [
              77.635864,
              12.9350834
            ],
            [
              77.6357353,
              12.9350834
            ],
            [
              77.6353168,
              12.9349893
            ],
            [
              77.6352739,
              12.935073
            ],
            [
              77.6352632,
              12.935188
            ],
            [
              77.6351345,
              12.9357004
            ],
            [
              77.6347911,
              12.9360977
            ],
            [
              77.6347375,
              12.9361082
            ],
            [
              77.6346624,
              12.9360664
            ]
          ]
        ]
      }
    }
  ]
}