{
  "type": "FeatureCollection",
  "bbox": [
    3.0995178,
    6.4122014,
    3.449707,
    6.6987067
  ],
  "features": [
    {
      "type": "Feature",
      "bbox": [
        3.0995178,
        6.4122014,
        3.449707,
        6.6987067
      ],
      "properties": {
        "name": "Lagos",
        "source": "Google Maps selected-place raster outline",
        "zoom": 10,
        "vertices": 66,
        "approx_area_km2": 675.175,
        "closed_ring": true,
        "extracted_at": "2026-08-25T13:58:46Z",
        "mode": "fast",
        "warning": "Reverse-traced from raster tiles; accuracy is limited by Web Mercator pixel resolution at the captured zoom."
      },
      "geometry": {
        "type": "Polygon",
        "coordinates": [
          [
            [
              3.4469604,
              6.629142
            ],
            [
              3.4332275,
              6.6400547
            ],
            [
              3.4249878,
              6.6427829
            ],
            [
              3.4043884,
              6.6427829
            ],
            [
              3.3782959,
              6.6386907
            ],
            [
              3.3686829,
              6.6400547
            ],
            [
              3.35495,
              6.6550594
            ],
            [
              3.3522034,
              6.6646076
            ],
            [
              3.3425903,
              6.6755195
            ],
            [
              3.2794189,
              6.6973427
            ],
            [
              3.2711792,
              6.6987067
            ],
            [
              3.2629395,
              6.6959788
            ],
            [
              3.2395935,
              6.6577875
            ],
            [
              3.2395935,
              6.618229
            ],
            [
              3.1956482,
              6.5759389
            ],
            [
              3.1956482,
              6.5677533
            ],
            [
              3.2038879,
              6.548653
            ],
            [
              3.1997681,
              6.5309164
            ],
            [
              3.1750488,
              6.5172724
            ],
            [
              3.1448364,
              6.5104503
            ],
            [
              3.13797,
              6.515908
            ],
            [
              3.1269836,
              6.515908
            ],
            [
              3.1132507,
              6.5008991
            ],
            [
              3.1118774,
              6.4872543
            ],
            [
              3.114624,
              6.4777028
            ],
            [
              3.0995178,
              6.4626928
            ],
            [
              3.0995178,
              6.4545053
            ],
            [
              3.1091309,
              6.4340361
            ],
            [
              3.1214905,
              6.4272129
            ],
            [
              3.1297302,
              6.4299422
            ],
            [
              3.1393433,
              6.4176602
            ],
            [
              3.1613159,
              6.4122014
            ],
            [
              3.1929016,
              6.4190248
            ],
            [
              3.1983948,
              6.4258482
            ],
            [
              3.1983948,
              6.4326715
            ],
            [
              3.2107544,
              6.4463177
            ],
            [
              3.2341003,
              6.4326715
            ],
            [
              3.2505798,
              6.4272129
            ],
            [
              3.2629395,
              6.4313068
            ],
            [
              3.2752991,
              6.4313068
            ],
            [
              3.2849121,
              6.4408593
            ],
            [
              3.2931519,
              6.43813
            ],
            [
              3.3000183,
              6.4408593
            ],
            [
              3.3178711,
              6.4354008
            ],
            [
              3.3288574,
              6.4394947
            ],
            [
              3.3439636,
              6.43813
            ],
            [
              3.3659363,
              6.4422239
            ],
            [
              3.3714294,
              6.449047
            ],
            [
              3.3700562,
              6.4749737
            ],
            [
              3.3837891,
              6.4763382
            ],
            [
              3.3920288,
              6.4845253
            ],
            [
              3.3961487,
              6.5104503
            ],
            [
              3.4002686,
              6.515908
            ],
            [
              3.3988953,
              6.5309164
            ],
            [
              3.4030151,
              6.5350095
            ],
            [
              3.4057617,
              6.54456
            ],
            [
              3.4057617,
              6.5541103
            ],
            [
              3.4016418,
              6.5622961
            ],
            [
              3.4112549,
              6.5691175
            ],
            [
              3.4194946,
              6.5677533
            ],
            [
              3.4277344,
              6.5704818
            ],
            [
              3.4332275,
              6.5800316
            ],
            [
              3.449707,
              6.5950381
            ],
            [
              3.449707,
              6.6032232
            ],
            [
              3.4455872,
              6.6114083
            ],
            [
              3.4483337,
              6.618229
            ],
            [
              3.4469604,
              6.629142
            ]
          ]
        ]
      }
    }
  ]
}