{
  "type": "FeatureCollection",
  "bbox": [
    80.1150513,
    13.0413519,
    80.2146149,
    13.1369911
  ],
  "features": [
    {
      "type": "Feature",
      "bbox": [
        80.1150513,
        13.0413519,
        80.2146149,
        13.1369911
      ],
      "properties": {
        "name": "Madipakkam",
        "source": "Google Maps selected-place raster outline",
        "zoom": 11,
        "vertices": 36,
        "approx_area_km2": 27.736,
        "closed_ring": false,
        "warning": "Reverse-traced from raster tiles; accuracy is limited by Web Mercator pixel resolution at the captured zoom."
      },
      "geometry": {
        "type": "Polygon",
        "coordinates": [
          [
            [
              80.2146149,
              13.1336477
            ],
            [
              80.2118683,
              13.1363224
            ],
            [
              80.2091217,
              13.1369911
            ],
            [
              80.2022552,
              13.1363224
            ],
            [
              80.1734161,
              13.0995424
            ],
            [
              80.1665497,
              13.0995424
            ],
            [
              80.1638031,
              13.0968673
            ],
            [
              80.1638031,
              13.091517
            ],
            [
              80.1665497,
              13.0888417
            ],
            [
              80.1713562,
              13.0881729
            ],
            [
              80.1802826,
              13.0754653
            ],
            [
              80.1795959,
              13.0741276
            ],
            [
              80.1734161,
              13.0747964
            ],
            [
              80.1686096,
              13.072121
            ],
            [
              80.1205444,
              13.0714522
            ],
            [
              80.1177979,
              13.0707833
            ],
            [
              80.1150513,
              13.0681079
            ],
            [
              80.1150513,
              13.0627569
            ],
            [
              80.1177979,
              13.0600814
            ],
            [
              80.1205444,
              13.0594125
            ],
            [
              80.1699829,
              13.0600814
            ],
            [
              80.1741028,
              13.0580747
            ],
            [
              80.1747894,
              13.0446966
            ],
            [
              80.177536,
              13.0420208
            ],
            [
              80.1802826,
              13.0413519
            ],
            [
              80.1885223,
              13.0420208
            ],
            [
              80.1912689,
              13.0446966
            ],
            [
              80.1919556,
              13.0487101
            ],
            [
              80.1864624,
              13.0533925
            ],
            [
              80.1864624,
              13.0587436
            ],
            [
              80.1905823,
              13.0600814
            ],
            [
              80.1947021,
              13.0647635
            ],
            [
              80.1947021,
              13.0761341
            ],
            [
              80.1844025,
              13.0928546
            ],
            [
              80.2070618,
              13.1229485
            ],
            [
              80.2146149,
              13.1282982
            ],
            [
              80.2146149,
              13.1336477
            ]
          ]
        ]
      }
    }
  ]
}