{
  "type": "FeatureCollection",
  "bbox": [
    78.0607796,
    9.8628268,
    78.1809425,
    9.9822068
  ],
  "features": [
    {
      "type": "Feature",
      "bbox": [
        78.0607796,
        9.8628268,
        78.1809425,
        9.9822068
      ],
      "properties": {
        "name": "Madurai",
        "source": "Google Maps selected-place raster outline",
        "zoom": 13,
        "vertices": 115,
        "approx_area_km2": 119.748,
        "closed_ring": true,
        "warning": "Reverse-traced from raster tiles; accuracy is limited by Web Mercator pixel resolution at the captured zoom."
      },
      "geometry": {
        "type": "Polygon",
        "coordinates": [
          [
            [
              78.1684113,
              9.9786565
            ],
            [
              78.165493,
              9.9803471
            ],
            [
              78.1618881,
              9.9813615
            ],
            [
              78.1587982,
              9.9813615
            ],
            [
              78.1570816,
              9.9818687
            ],
            [
              78.1531334,
              9.9822068
            ],
            [
              78.1486702,
              9.9816996
            ],
            [
              78.1466103,
              9.9810234
            ],
            [
              78.143692,
              9.9793328
            ],
            [
              78.1399155,
              9.9752752
            ],
            [
              78.1387138,
              9.9745989
            ],
            [
              78.1354523,
              9.9712176
            ],
            [
              78.133564,
              9.967329
            ],
            [
              78.132534,
              9.9688506
            ],
            [
              78.1299591,
              9.9713866
            ],
            [
              78.1266975,
              9.9732464
            ],
            [
              78.122921,
              9.9744299
            ],
            [
              78.1186295,
              9.9749371
            ],
            [
              78.1169128,
              9.9754443
            ],
            [
              78.1146812,
              9.9756133
            ],
            [
              78.111763,
              9.9752752
            ],
            [
              78.1090164,
              9.9744299
            ],
            [
              78.1060982,
              9.9727392
            ],
            [
              78.1033516,
              9.9700341
            ],
            [
              78.10215,
              9.9681743
            ],
            [
              78.0990601,
              9.9680053
            ],
            [
              78.0954552,
              9.9669908
            ],
            [
              78.0897903,
              9.9637785
            ],
            [
              78.0870438,
              9.9610733
            ],
            [
              78.0851555,
              9.9578609
            ],
            [
              78.0844688,
              9.9556629
            ],
            [
              78.0844688,
              9.9499143
            ],
            [
              78.0851555,
              9.9477162
            ],
            [
              78.0865288,
              9.94518
            ],
            [
              78.0908203,
              9.941122
            ],
            [
              78.0836105,
              9.9389239
            ],
            [
              78.0806923,
              9.9372331
            ],
            [
              78.0776024,
              9.9340204
            ],
            [
              78.0762291,
              9.9314841
            ],
            [
              78.0753708,
              9.9286096
            ],
            [
              78.0727959,
              9.925735
            ],
            [
              78.0710793,
              9.9215077
            ],
            [
              78.0707359,
              9.9160966
            ],
            [
              78.068161,
              9.9125456
            ],
            [
              78.0667877,
              9.9096709
            ],
            [
              78.0662727,
              9.9074726
            ],
            [
              78.0659294,
              9.9013849
            ],
            [
              78.0673027,
              9.8959735
            ],
            [
              78.0652428,
              9.8937751
            ],
            [
              78.0640411,
              9.8914075
            ],
            [
              78.0624962,
              9.8895473
            ],
            [
              78.0607796,
              9.8853195
            ],
            [
              78.0607796,
              9.8794005
            ],
            [
              78.0614662,
              9.877202
            ],
            [
              78.0624962,
              9.8753417
            ],
            [
              78.0630112,
              9.8722976
            ],
            [
              78.0647278,
              9.8689152
            ],
            [
              78.0678177,
              9.8657019
            ],
            [
              78.0707359,
              9.8640106
            ],
            [
              78.0727959,
              9.8633341
            ],
            [
              78.0764008,
              9.8628268
            ],
            [
              78.0784607,
              9.8629959
            ],
            [
              78.0834389,
              9.8646871
            ],
            [
              78.0868721,
              9.8673931
            ],
            [
              78.0901337,
              9.8673931
            ],
            [
              78.0928802,
              9.8682387
            ],
            [
              78.0988884,
              9.8673931
            ],
            [
              78.1028366,
              9.8679005
            ],
            [
              78.1062698,
              9.8692534
            ],
            [
              78.1078148,
              9.8702682
            ],
            [
              78.1100464,
              9.8724667
            ],
            [
              78.1138229,
              9.8685769
            ],
            [
              78.1167412,
              9.8668857
            ],
            [
              78.1188011,
              9.8662092
            ],
            [
              78.122406,
              9.8657019
            ],
            [
              78.1253242,
              9.8660401
            ],
            [
              78.1280708,
              9.8668857
            ],
            [
              78.1309891,
              9.8685769
            ],
            [
              78.133564,
              9.8711138
            ],
            [
              78.1363106,
              9.8750035
            ],
            [
              78.1376839,
              9.8778785
            ],
            [
              78.1381989,
              9.8810917
            ],
            [
              78.1407738,
              9.8839666
            ],
            [
              78.1421471,
              9.8868415
            ],
            [
              78.1424904,
              9.8887018
            ],
            [
              78.1430054,
              9.8893782
            ],
            [
              78.1443787,
              9.8897164
            ],
            [
              78.1472969,
              9.8914075
            ],
            [
              78.1500435,
              9.8941133
            ],
            [
              78.1521034,
              9.8974954
            ],
            [
              78.1533051,
              9.8978336
            ],
            [
              78.1565666,
              9.8996938
            ],
            [
              78.1593132,
              9.9023995
            ],
            [
              78.1606865,
              9.9044287
            ],
            [
              78.1636047,
              9.9045978
            ],
            [
              78.1672096,
              9.9056124
            ],
            [
              78.1701279,
              9.9073035
            ],
            [
              78.1728745,
              9.9100091
            ],
            [
              78.1742477,
              9.9123765
            ],
            [
              78.176136,
              9.9145747
            ],
            [
              78.1778526,
              9.9188022
            ],
            [
              78.1783676,
              9.9231986
            ],
            [
              78.1783676,
              9.9272568
            ],
            [
              78.1769943,
              9.9338513
            ],
            [
              78.1804276,
              9.9404457
            ],
            [
              78.1809425,
              9.9428128
            ],
            [
              78.1809425,
              9.9467017
            ],
            [
              78.1804276,
              9.9490689
            ],
            [
              78.1787109,
              9.9524504
            ],
            [
              78.1752777,
              9.9560011
            ],
            [
              78.1728745,
              9.9578609
            ],
            [
              78.175106,
              9.9632713
            ],
            [
              78.175106,
              9.9691887
            ],
            [
              78.1744194,
              9.9713866
            ],
            [
              78.1730461,
              9.9739227
            ],
            [
              78.1684113,
              9.9786565
            ]
          ]
        ]
      }
    }
  ]
}