{
  "type": "FeatureCollection",
  "bbox": [
    150.5291748,
    -34.1061193,
    151.3146973,
    -33.6523515
  ],
  "features": [
    {
      "type": "Feature",
      "bbox": [
        150.5291748,
        -34.1061193,
        151.3146973,
        -33.6523515
      ],
      "properties": {
        "name": "Sydney",
        "source": "Google Maps selected-place raster outline",
        "zoom": 10,
        "vertices": 340,
        "approx_area_km2": 1819.9,
        "closed_ring": true,
        "extracted_at": "2026-08-25T13:58:49Z",
        "mode": "fast",
        "warning": "Reverse-traced from raster tiles; accuracy is limited by Web Mercator pixel resolution at the captured zoom."
      },
      "geometry": {
        "type": "Polygon",
        "coordinates": [
          [
            [
              151.313324,
              -33.668354
            ],
            [
              151.2886047,
              -33.6534946
            ],
            [
              151.2831116,
              -33.6523515
            ],
            [
              151.2721252,
              -33.6569239
            ],
            [
              151.2652588,
              -33.6569239
            ],
            [
              151.2542725,
              -33.6637822
            ],
            [
              151.2501526,
              -33.6763542
            ],
            [
              151.2446594,
              -33.6820682
            ],
            [
              151.2391663,
              -33.6843537
            ],
            [
              151.2254333,
              -33.6820682
            ],
            [
              151.2075806,
              -33.6889244
            ],
            [
              151.2020874,
              -33.6946376
            ],
            [
              151.2034607,
              -33.7060627
            ],
            [
              151.1993408,
              -33.7083475
            ],
            [
              151.1938477,
              -33.7083475
            ],
            [
              151.1828613,
              -33.7014928
            ],
            [
              151.1691284,
              -33.7014928
            ],
            [
              151.162262,
              -33.6992078
            ],
            [
              151.1512756,
              -33.7003503
            ],
            [
              151.1430359,
              -33.7072051
            ],
            [
              151.129303,
              -33.7037778
            ],
            [
              151.1265564,
              -33.6980652
            ],
            [
              151.1183167,
              -33.6912097
            ],
            [
              151.1087036,
              -33.6889244
            ],
            [
              151.1004639,
              -33.6912097
            ],
            [
              151.0949707,
              -33.6969227
            ],
            [
              151.0881042,
              -33.6992078
            ],
            [
              151.072998,
              -33.7003503
            ],
            [
              151.0675049,
              -33.7037778
            ],
            [
              151.0578918,
              -33.7037778
            ],
            [
              151.0359192,
              -33.7106323
            ],
            [
              151.0290527,
              -33.7106323
            ],
            [
              151.0263062,
              -33.7083475
            ],
            [
              151.0263062,
              -33.6946376
            ],
            [
              151.020813,
              -33.6900671
            ],
            [
              151.0043335,
              -33.6843537
            ],
            [
              150.9947205,
              -33.6866391
            ],
            [
              150.987854,
              -33.6923523
            ],
            [
              150.9713745,
              -33.6923523
            ],
            [
              150.9631348,
              -33.6980652
            ],
            [
              150.954895,
              -33.7003503
            ],
            [
              150.945282,
              -33.6923523
            ],
            [
              150.9329224,
              -33.6752114
            ],
            [
              150.9205627,
              -33.669497
            ],
            [
              150.9040833,
              -33.6763542
            ],
            [
              150.8972168,
              -33.677497
            ],
            [
              150.8876038,
              -33.6740685
            ],
            [
              150.879364,
              -33.6763542
            ],
            [
              150.8738708,
              -33.6809254
            ],
            [
              150.8670044,
              -33.6786399
            ],
            [
              150.8532715,
              -33.6832109
            ],
            [
              150.8409119,
              -33.6843537
            ],
            [
              150.8340454,
              -33.6889244
            ],
            [
              150.8326721,
              -33.6980652
            ],
            [
              150.8395386,
              -33.7094899
            ],
            [
              150.8477783,
              -33.7152016
            ],
            [
              150.8615112,
              -33.7152016
            ],
            [
              150.8656311,
              -33.7186285
            ],
            [
              150.8670044,
              -33.726624
            ],
            [
              150.8642578,
              -33.7300504
            ],
            [
              150.8573914,
              -33.7289083
            ],
            [
              150.8477783,
              -33.7311925
            ],
            [
              150.8395386,
              -33.726624
            ],
            [
              150.8285522,
              -33.7243397
            ],
            [
              150.8244324,
              -33.7254818
            ],
            [
              150.7749939,
              -33.7186285
            ],
            [
              150.7626343,
              -33.7243397
            ],
            [
              150.761261,
              -33.7357608
            ],
            [
              150.7543945,
              -33.7403289
            ],
            [
              150.7365417,
              -33.7391869
            ],
            [
              150.718689,
              -33.7311925
            ],
            [
              150.718689,
              -33.7117746
            ],
            [
              150.7131958,
              -33.7060627
            ],
            [
              150.7035828,
              -33.7037778
            ],
            [
              150.6939697,
              -33.7072051
            ],
            [
              150.6829834,
              -33.6969227
            ],
            [
              150.6747437,
              -33.6957801
            ],
            [
              150.6678772,
              -33.6980652
            ],
            [
              150.6637573,
              -33.6946376
            ],
            [
              150.662384,
              -33.6889244
            ],
            [
              150.652771,
              -33.6820682
            ],
            [
              150.652771,
              -33.668354
            ],
            [
              150.6445312,
              -33.6614962
            ],
            [
              150.6253052,
              -33.6614962
            ],
            [
              150.6143188,
              -33.6649252
            ],
            [
              150.5950928,
              -33.6569239
            ],
            [
              150.5703735,
              -33.6626392
            ],
            [
              150.5621338,
              -33.669497
            ],
            [
              150.5593872,
              -33.6752114
            ],
            [
              150.5484009,
              -33.6729257
            ],
            [
              150.5401611,
              -33.6752114
            ],
            [
              150.5291748,
              -33.6877818
            ],
            [
              150.5291748,
              -33.7037778
            ],
            [
              150.5360413,
              -33.7083475
            ],
            [
              150.5484009,
              -33.7094899
            ],
            [
              150.5566406,
              -33.716344
            ],
            [
              150.5703735,
              -33.7174862
            ],
            [
              150.57724,
              -33.7220552
            ],
            [
              150.586853,
              -33.7220552
            ],
            [
              150.5964661,
              -33.7277662
            ],
            [
              150.5950928,
              -33.7391869
            ],
            [
              150.5992126,
              -33.7494642
            ],
            [
              150.6088257,
              -33.7631654
            ],
            [
              150.6239319,
              -33.7768644
            ],
            [
              150.6321716,
              -33.7791473
            ],
            [
              150.6404114,
              -33.7780059
            ],
            [
              150.6513977,
              -33.7688736
            ],
            [
              150.6582642,
              -33.7745814
            ],
            [
              150.6596375,
              -33.7871372
            ],
            [
              150.6665039,
              -33.793985
            ],
            [
              150.6898499,
              -33.7996912
            ],
            [
              150.7131958,
              -33.7928438
            ],
            [
              150.7228088,
              -33.7848544
            ],
            [
              150.7324219,
              -33.7825716
            ],
            [
              150.7420349,
              -33.7837131
            ],
            [
              150.7598877,
              -33.7814302
            ],
            [
              150.7695007,
              -33.7848544
            ],
            [
              150.7681274,
              -33.8019735
            ],
            [
              150.7749939,
              -33.8111023
            ],
            [
              150.7763672,
              -33.8190892
            ],
            [
              150.7887268,
              -33.8247936
            ],
            [
              150.8065796,
              -33.821371
            ],
            [
              150.8148193,
              -33.8236528
            ],
            [
              150.8203125,
              -33.8282161
            ],
            [
              150.8230591,
              -33.8533102
            ],
            [
              150.8312988,
              -33.8590124
            ],
            [
              150.846405,
              -33.8624335
            ],
            [
              150.8422852,
              -33.8886575
            ],
            [
              150.8546448,
              -33.9000567
            ],
            [
              150.8560181,
              -33.9125941
            ],
            [
              150.8518982,
              -33.9171527
            ],
            [
              150.8450317,
              -33.9125941
            ],
            [
              150.8299255,
              -33.9103148
            ],
            [
              150.8216858,
              -33.9125941
            ],
            [
              150.8161926,
              -33.9182924
            ],
            [
              150.8052063,
              -33.9171527
            ],
            [
              150.7969666,
              -33.9194319
            ],
            [
              150.7873535,
              -33.9296876
            ],
            [
              150.7887268,
              -33.9433599
            ],
            [
              150.7955933,
              -33.9479169
            ],
            [
              150.8106995,
              -33.9513345
            ],
            [
              150.8148193,
              -33.9501953
            ],
            [
              150.8244324,
              -33.9524736
            ],
            [
              150.8381653,
              -33.9479169
            ],
            [
              150.8752441,
              -33.9570301
            ],
            [
              150.869751,
              -33.9650033
            ],
            [
              150.8628845,
              -33.9684202
            ],
            [
              150.8532715,
              -33.9695591
            ],
            [
              150.8436584,
              -33.9752535
            ],
            [
              150.8436584,
              -33.9946116
            ],
            [
              150.8354187,
              -34.0048582
            ],
            [
              150.8258057,
              -34.0105502
            ],
            [
              150.8161926,
              -34.0094119
            ],
            [
              150.803833,
              -34.0151036
            ],
            [
              150.803833,
              -34.0344526
            ],
            [
              150.7997131,
              -34.0401427
            ],
            [
              150.8010864,
              -34.054935
            ],
            [
              150.7832336,
              -34.0606237
            ],
            [
              150.7804871,
              -34.0572105
            ],
            [
              150.7818604,
              -34.0424186
            ],
            [
              150.7791138,
              -34.0367287
            ],
            [
              150.7543945,
              -34.0196567
            ],
            [
              150.7337952,
              -34.0128269
            ],
            [
              150.7214355,
              -34.0185184
            ],
            [
              150.7200623,
              -34.0367287
            ],
            [
              150.7159424,
              -34.0412806
            ],
            [
              150.7145691,
              -34.0481081
            ],
            [
              150.7063293,
              -34.0537972
            ],
            [
              150.7008362,
              -34.0492459
            ],
            [
              150.6925964,
              -34.0469702
            ],
            [
              150.6816101,
              -34.0503838
            ],
            [
              150.6719971,
              -34.0469702
            ],
            [
              150.6596375,
              -34.0526594
            ],
            [
              150.6596375,
              -34.0674496
            ],
            [
              150.6541443,
              -34.0731374
            ],
            [
              150.6555176,
              -34.0822372
            ],
            [
              150.662384,
              -34.0867867
            ],
            [
              150.68573,
              -34.087924
            ],
            [
              150.6925964,
              -34.0901986
            ],
            [
              150.7008362,
              -34.087924
            ],
            [
              150.7077026,
              -34.0776874
            ],
            [
              150.7214355,
              -34.0788249
            ],
            [
              150.7351685,
              -34.0765499
            ],
            [
              150.7461548,
              -34.0799623
            ],
            [
              150.7543945,
              -34.0788249
            ],
            [
              150.7653809,
              -34.0833746
            ],
            [
              150.7736206,
              -34.0810997
            ],
            [
              150.7791138,
              -34.1004337
            ],
            [
              150.7873535,
              -34.1061193
            ],
            [
              150.7983398,
              -34.1061193
            ],
            [
              150.8052063,
              -34.1015709
            ],
            [
              150.8079529,
              -34.0958849
            ],
            [
              150.8148193,
              -34.0970221
            ],
            [
              150.8230591,
              -34.0947477
            ],
            [
              150.846405,
              -34.0742749
            ],
            [
              150.846405,
              -34.0560728
            ],
            [
              150.8518982,
              -34.0481081
            ],
            [
              150.8518982,
              -34.0390047
            ],
            [
              150.8670044,
              -34.0173802
            ],
            [
              150.8821106,
              -34.0219332
            ],
            [
              150.8862305,
              -34.027624
            ],
            [
              150.8972168,
              -34.0344526
            ],
            [
              150.921936,
              -34.0355906
            ],
            [
              150.9342957,
              -34.0390047
            ],
            [
              150.9411621,
              -34.0378667
            ],
            [
              150.9480286,
              -34.0333146
            ],
            [
              150.9494019,
              -34.0264859
            ],
            [
              150.9535217,
              -34.0230714
            ],
            [
              150.9645081,
              -34.0242096
            ],
            [
              150.9727478,
              -34.0219332
            ],
            [
              150.9906006,
              -34.0071351
            ],
            [
              150.9947205,
              -33.9991658
            ],
            [
              150.9947205,
              -33.9911958
            ],
            [
              150.9906006,
              -33.983225
            ],
            [
              150.9919739,
              -33.9798087
            ],
            [
              151.0139465,
              -33.9855024
            ],
            [
              151.0112,
              -33.9968887
            ],
            [
              151.0002136,
              -34.0082735
            ],
            [
              151.0043335,
              -34.027624
            ],
            [
              150.9933472,
              -34.0355906
            ],
            [
              150.9933472,
              -34.0435565
            ],
            [
              150.997467,
              -34.0481081
            ],
            [
              150.9947205,
              -34.0515216
            ],
            [
              150.9947205,
              -34.059486
            ],
            [
              151.0002136,
              -34.0651743
            ],
            [
              151.0084534,
              -34.0674496
            ],
            [
              151.0153198,
              -34.066312
            ],
            [
              151.0317993,
              -34.0583482
            ],
            [
              151.0496521,
              -34.0446944
            ],
            [
              151.0606384,
              -34.0401427
            ],
            [
              151.0647583,
              -34.0412806
            ],
            [
              151.0784912,
              -34.0537972
            ],
            [
              151.0935974,
              -34.0560728
            ],
            [
              151.1073303,
              -34.0617614
            ],
            [
              151.1169434,
              -34.0697248
            ],
            [
              151.1224365,
              -34.0708623
            ],
            [
              151.129303,
              -34.0685872
            ],
            [
              151.1416626,
              -34.0742749
            ],
            [
              151.1499023,
              -34.0719999
            ],
            [
              151.1553955,
              -34.066312
            ],
            [
              151.1581421,
              -34.0458323
            ],
            [
              151.1705017,
              -34.0355906
            ],
            [
              151.1691284,
              -34.0264859
            ],
            [
              151.1567688,
              -34.0185184
            ],
            [
              151.1636353,
              -34.0105502
            ],
            [
              151.1636353,
              -34.0037198
            ],
            [
              151.1581421,
              -33.9980273
            ],
            [
              151.1471558,
              -33.993473
            ],
            [
              151.1485291,
              -33.9775311
            ],
            [
              151.1595154,
              -33.955891
            ],
            [
              151.1650085,
              -33.9501953
            ],
            [
              151.171875,
              -33.9479169
            ],
            [
              151.1773682,
              -33.9513345
            ],
            [
              151.1952209,
              -33.9547519
            ],
            [
              151.2185669,
              -33.9672812
            ],
            [
              151.2213135,
              -33.9729758
            ],
            [
              151.2322998,
              -33.9820863
            ],
            [
              151.2405396,
              -33.9843637
            ],
            [
              151.2487793,
              -33.9820863
            ],
            [
              151.2542725,
              -33.9763923
            ],
            [
              151.2528992,
              -33.9650033
            ],
            [
              151.2583923,
              -33.9593082
            ],
            [
              151.2583923,
              -33.9205715
            ],
            [
              151.2625122,
              -33.9171527
            ],
            [
              151.2693787,
              -33.9023364
            ],
            [
              151.2817383,
              -33.8909375
            ],
            [
              151.2831116,
              -33.8818172
            ],
            [
              151.280365,
              -33.8761166
            ],
            [
              151.2734985,
              -33.8715558
            ],
            [
              151.2625122,
              -33.8715558
            ],
            [
              151.2501526,
              -33.868135
            ],
            [
              151.2391663,
              -33.8704156
            ],
            [
              151.237793,
              -33.8692753
            ],
            [
              151.2432861,
              -33.8624335
            ],
            [
              151.2432861,
              -33.8555911
            ],
            [
              151.237793,
              -33.8498887
            ],
            [
              151.2295532,
              -33.8476076
            ],
            [
              151.2213135,
              -33.8487482
            ],
            [
              151.2075806,
              -33.8555911
            ],
            [
              151.1911011,
              -33.8738362
            ],
            [
              151.1787415,
              -33.8715558
            ],
            [
              151.171875,
              -33.8647141
            ],
            [
              151.1636353,
              -33.8624335
            ],
            [
              151.1553955,
              -33.8647141
            ],
            [
              151.1499023,
              -33.8704156
            ],
            [
              151.1444092,
              -33.8692753
            ],
            [
              151.1347961,
              -33.8624335
            ],
            [
              151.1279297,
              -33.8612931
            ],
            [
              151.1196899,
              -33.8635738
            ],
            [
              151.1155701,
              -33.8601527
            ],
            [
              151.1141968,
              -33.8510292
            ],
            [
              151.1087036,
              -33.8453265
            ],
            [
              151.0935974,
              -33.8384828
            ],
            [
              151.0798645,
              -33.8384828
            ],
            [
              151.0743713,
              -33.8293569
            ],
            [
              151.0661316,
              -33.8236528
            ],
            [
              151.0675049,
              -33.8179482
            ],
            [
              151.0784912,
              -33.8179482
            ],
            [
              151.0949707,
              -33.8225119
            ],
            [
              151.1183167,
              -33.8327792
            ],
            [
              151.1238098,
              -33.8384828
            ],
            [
              151.1361694,
              -33.8419047
            ],
            [
              151.1526489,
              -33.8362014
            ],
            [
              151.1595154,
              -33.8407641
            ],
            [
              151.171875,
              -33.8430453
            ],
            [
              151.1801147,
              -33.8407641
            ],
            [
              151.1883545,
              -33.8350607
            ],
            [
              151.2075806,
              -33.8441859
            ],
            [
              151.2281799,
              -33.8396234
            ],
            [
              151.2350464,
              -33.8327792
            ],
            [
              151.2350464,
              -33.8247936
            ],
            [
              151.2295532,
              -33.8190892
            ],
            [
              151.2226868,
              -33.8168073
            ],
            [
              151.2254333,
              -33.8133843
            ],
            [
              151.2254333,
              -33.806538
            ],
            [
              151.2213135,
              -33.8019735
            ],
            [
              151.2199402,
              -33.7905612
            ],
            [
              151.2089539,
              -33.7768644
            ],
            [
              151.2117004,
              -33.7757229
            ],
            [
              151.2185669,
              -33.7780059
            ],
            [
              151.2281799,
              -33.7745814
            ],
            [
              151.237793,
              -33.7962675
            ],
            [
              151.2556458,
              -33.8053969
            ],
            [
              151.2680054,
              -33.8053969
            ],
            [
              151.2776184,
              -33.8031147
            ],
            [
              151.2844849,
              -33.79855
            ],
            [
              151.2872314,
              -33.7859958
            ],
            [
              151.2927246,
              -33.7791473
            ],
            [
              151.2927246,
              -33.7722983
            ],
            [
              151.2995911,
              -33.764307
            ],
            [
              151.2995911,
              -33.7563151
            ],
            [
              151.2940979,
              -33.7471804
            ],
            [
              151.3009644,
              -33.7448966
            ],
            [
              151.3078308,
              -33.7380449
            ],
            [
              151.3078308,
              -33.7311925
            ],
            [
              151.2995911,
              -33.720913
            ],
            [
              151.2995911,
              -33.716344
            ],
            [
              151.3105774,
              -33.6980652
            ],
            [
              151.3092041,
              -33.6854964
            ],
            [
              151.3146973,
              -33.677497
            ],
            [
              151.313324,
              -33.668354
            ]
          ]
        ]
      }
    }
  ]
}