{
  "type": "FeatureCollection",
  "bbox": [
    80.0939369,
    12.9065249,
    80.133419,
    12.9461776
  ],
  "features": [
    {
      "type": "Feature",
      "bbox": [
        80.0939369,
        12.9065249,
        80.133419,
        12.9461776
      ],
      "properties": {
        "name": "Tambaram",
        "source": "Google Maps selected-place raster outline",
        "zoom": 13,
        "vertices": 33,
        "approx_area_km2": 13.889,
        "closed_ring": true,
        "warning": "Reverse-traced from raster tiles; accuracy is limited by Web Mercator pixel resolution at the captured zoom."
      },
      "geometry": {
        "type": "Polygon",
        "coordinates": [
          [
            [
              80.111618,
              12.9461776
            ],
            [
              80.1080132,
              12.9456757
            ],
            [
              80.1045799,
              12.9443373
            ],
            [
              80.1023483,
              12.9428316
            ],
            [
              80.0996017,
              12.9401548
            ],
            [
              80.0977135,
              12.9373107
            ],
            [
              80.0963402,
              12.9344665
            ],
            [
              80.0939369,
              12.9259338
            ],
            [
              80.0939369,
              12.9219182
            ],
            [
              80.0944519,
              12.9195758
            ],
            [
              80.0959969,
              12.9163968
            ],
            [
              80.0989151,
              12.9120465
            ],
            [
              80.1016617,
              12.9093694
            ],
            [
              80.1032066,
              12.9083654
            ],
            [
              80.1066399,
              12.9070268
            ],
            [
              80.1102448,
              12.9065249
            ],
            [
              80.1138496,
              12.9070268
            ],
            [
              80.1172829,
              12.9083654
            ],
            [
              80.1188278,
              12.9093694
            ],
            [
              80.1220894,
              12.9128831
            ],
            [
              80.1251793,
              12.9137197
            ],
            [
              80.1280975,
              12.9153929
            ],
            [
              80.1315308,
              12.9190739
            ],
            [
              80.1329041,
              12.9219182
            ],
            [
              80.133419,
              12.9242606
            ],
            [
              80.133419,
              12.9279415
            ],
            [
              80.1329041,
              12.9302838
            ],
            [
              80.1306725,
              12.9342992
            ],
            [
              80.1255226,
              12.9389837
            ],
            [
              80.1234627,
              12.9401548
            ],
            [
              80.1202011,
              12.9433335
            ],
            [
              80.1186562,
              12.9443373
            ],
            [
              80.1152229,
              12.9456757
            ],
            [
              80.111618,
              12.9461776
            ]
          ]
        ]
      }
    }
  ]
}