{
  "type": "FeatureCollection",
  "bbox": [
    78.6340857,
    10.7264776,
    78.7574673,
    10.8812694
  ],
  "features": [
    {
      "type": "Feature",
      "bbox": [
        78.6340857,
        10.7264776,
        78.7574673,
        10.8812694
      ],
      "properties": {
        "name": "Tiruchirappalli",
        "source": "Google Maps selected-place raster outline",
        "zoom": 15,
        "vertices": 590,
        "approx_area_km2": 132.024,
        "closed_ring": true,
        "extracted_at": "2026-08-25T14:54:55Z",
        "mode": "hi-fi",
        "warning": "Reverse-traced from raster tiles; accuracy is limited by Web Mercator pixel resolution at the captured zoom."
      },
      "geometry": {
        "type": "Polygon",
        "coordinates": [
          [
            [
              78.6570883,
              10.8810587
            ],
            [
              78.6558867,
              10.8804687
            ],
            [
              78.6550283,
              10.879668
            ],
            [
              78.6546421,
              10.8791201
            ],
            [
              78.654213,
              10.8780665
            ],
            [
              78.6541271,
              10.8775607
            ],
            [
              78.6541271,
              10.8764229
            ],
            [
              78.6539125,
              10.87558
            ],
            [
              78.6539125,
              10.8744842
            ],
            [
              78.6539984,
              10.8739785
            ],
            [
              78.6542559,
              10.873262
            ],
            [
              78.6548138,
              10.872377
            ],
            [
              78.6555433,
              10.8716605
            ],
            [
              78.6559725,
              10.8713655
            ],
            [
              78.6574745,
              10.8706912
            ],
            [
              78.6583328,
              10.8704383
            ],
            [
              78.6591482,
              10.870354
            ],
            [
              78.6600065,
              10.8704383
            ],
            [
              78.6608648,
              10.8706912
            ],
            [
              78.6616373,
              10.8711126
            ],
            [
              78.6618519,
              10.8701854
            ],
            [
              78.6621952,
              10.8694268
            ],
            [
              78.6625814,
              10.8688789
            ],
            [
              78.6632681,
              10.8682046
            ],
            [
              78.6636972,
              10.8679096
            ],
            [
              78.6654997,
              10.8670245
            ],
            [
              78.6691475,
              10.8643272
            ],
            [
              78.6709929,
              10.8631049
            ],
            [
              78.674469,
              10.8599439
            ],
            [
              78.6763573,
              10.8585531
            ],
            [
              78.6783314,
              10.8574994
            ],
            [
              78.6792326,
              10.8572887
            ],
            [
              78.6800051,
              10.8572887
            ],
            [
              78.680048,
              10.8572044
            ],
            [
              78.6783314,
              10.8544648
            ],
            [
              78.6778164,
              10.8532425
            ],
            [
              78.6777306,
              10.8527367
            ],
            [
              78.6777306,
              10.8517252
            ],
            [
              78.6779022,
              10.8509244
            ],
            [
              78.6782455,
              10.8501657
            ],
            [
              78.6786318,
              10.8496178
            ],
            [
              78.6800909,
              10.8481847
            ],
            [
              78.681035,
              10.8474682
            ],
            [
              78.6819792,
              10.8470467
            ],
            [
              78.6833096,
              10.846836
            ],
            [
              78.6841679,
              10.8469203
            ],
            [
              78.6848116,
              10.8470889
            ],
            [
              78.6852407,
              10.8472996
            ],
            [
              78.686142,
              10.8466674
            ],
            [
              78.686614,
              10.8461616
            ],
            [
              78.6866999,
              10.8459509
            ],
            [
              78.6860991,
              10.8453186
            ],
            [
              78.6854982,
              10.8441806
            ],
            [
              78.6853266,
              10.8433798
            ],
            [
              78.6853266,
              10.8423682
            ],
            [
              78.6848116,
              10.8413566
            ],
            [
              78.6846399,
              10.8405558
            ],
            [
              78.6836958,
              10.8399657
            ],
            [
              78.6830091,
              10.8392913
            ],
            [
              78.6824512,
              10.8384062
            ],
            [
              78.6821938,
              10.8376896
            ],
            [
              78.6821079,
              10.8371838
            ],
            [
              78.6821079,
              10.8360879
            ],
            [
              78.6822796,
              10.8354135
            ],
            [
              78.6822367,
              10.8352871
            ],
            [
              78.6812925,
              10.8352871
            ],
            [
              78.6807775,
              10.8353714
            ],
            [
              78.6808634,
              10.835835
            ],
            [
              78.6808634,
              10.8368466
            ],
            [
              78.6807775,
              10.8373524
            ],
            [
              78.6805201,
              10.838069
            ],
            [
              78.6799622,
              10.8389541
            ],
            [
              78.6792755,
              10.8396285
            ],
            [
              78.6788464,
              10.8399235
            ],
            [
              78.678031,
              10.8403029
            ],
            [
              78.6773872,
              10.8404715
            ],
            [
              78.6765718,
              10.8405558
            ],
            [
              78.6757994,
              10.8404715
            ],
            [
              78.6747265,
              10.8414831
            ],
            [
              78.6736965,
              10.8420732
            ],
            [
              78.6728382,
              10.8423261
            ],
            [
              78.6723232,
              10.8423682
            ],
            [
              78.6712074,
              10.843169
            ],
            [
              78.670392,
              10.8435484
            ],
            [
              78.6697483,
              10.843717
            ],
            [
              78.6689329,
              10.8438013
            ],
            [
              78.6675596,
              10.8435905
            ],
            [
              78.6665726,
              10.843169
            ],
            [
              78.6656284,
              10.8433798
            ],
            [
              78.6649418,
              10.8434219
            ],
            [
              78.6641264,
              10.8433376
            ],
            [
              78.6634827,
              10.843169
            ],
            [
              78.6630535,
              10.8429583
            ],
            [
              78.6621094,
              10.8430847
            ],
            [
              78.6615086,
              10.8430426
            ],
            [
              78.6603928,
              10.8427475
            ],
            [
              78.6593628,
              10.8421575
            ],
            [
              78.6585474,
              10.8413566
            ],
            [
              78.6571312,
              10.8410616
            ],
            [
              78.6560583,
              10.8405136
            ],
            [
              78.6538267,
              10.8385748
            ],
            [
              78.6531401,
              10.8379004
            ],
            [
              78.652668,
              10.837226
            ],
            [
              78.6522818,
              10.836383
            ],
            [
              78.6521101,
              10.8355821
            ],
            [
              78.6521101,
              10.8345705
            ],
            [
              78.6521959,
              10.8340647
            ],
            [
              78.6524534,
              10.8333481
            ],
            [
              78.6530113,
              10.832463
            ],
            [
              78.6529255,
              10.8317043
            ],
            [
              78.6524963,
              10.8299761
            ],
            [
              78.6525822,
              10.827995
            ],
            [
              78.6528826,
              10.8270676
            ],
            [
              78.6533117,
              10.8263511
            ],
            [
              78.6545563,
              10.8251708
            ],
            [
              78.6536121,
              10.8246229
            ],
            [
              78.6529255,
              10.8239484
            ],
            [
              78.6525393,
              10.8234004
            ],
            [
              78.6521101,
              10.8223466
            ],
            [
              78.6520243,
              10.8218408
            ],
            [
              78.6520243,
              10.820492
            ],
            [
              78.652153,
              10.8198175
            ],
            [
              78.6521101,
              10.8177942
            ],
            [
              78.6518097,
              10.8157709
            ],
            [
              78.6510801,
              10.8134946
            ],
            [
              78.6510372,
              10.8121457
            ],
            [
              78.651123,
              10.8116398
            ],
            [
              78.6515522,
              10.810586
            ],
            [
              78.6519384,
              10.810038
            ],
            [
              78.6526251,
              10.8093635
            ],
            [
              78.6537409,
              10.8087312
            ],
            [
              78.6550713,
              10.8082675
            ],
            [
              78.6559296,
              10.8081832
            ],
            [
              78.656745,
              10.8082675
            ],
            [
              78.6573887,
              10.8084361
            ],
            [
              78.6582041,
              10.8088155
            ],
            [
              78.659277,
              10.8096586
            ],
            [
              78.6602211,
              10.8101645
            ],
            [
              78.6609507,
              10.8102066
            ],
            [
              78.6617661,
              10.8097008
            ],
            [
              78.6625814,
              10.808942
            ],
            [
              78.6624098,
              10.8077195
            ],
            [
              78.6624098,
              10.8028718
            ],
            [
              78.6608648,
              10.8011856
            ],
            [
              78.6604357,
              10.8004689
            ],
            [
              78.6601782,
              10.7997523
            ],
            [
              78.6600924,
              10.7992464
            ],
            [
              78.6601353,
              10.7978975
            ],
            [
              78.660264,
              10.7973916
            ],
            [
              78.6606503,
              10.7965906
            ],
            [
              78.659277,
              10.7965063
            ],
            [
              78.6586332,
              10.7963377
            ],
            [
              78.6578178,
              10.7959583
            ],
            [
              78.6573887,
              10.7956632
            ],
            [
              78.6566591,
              10.7949466
            ],
            [
              78.6562729,
              10.7943985
            ],
            [
              78.6558008,
              10.7934289
            ],
            [
              78.6533546,
              10.7941034
            ],
            [
              78.651638,
              10.7942721
            ],
            [
              78.6508656,
              10.7944828
            ],
            [
              78.6499643,
              10.7945672
            ],
            [
              78.6491489,
              10.7944828
            ],
            [
              78.6482906,
              10.7942299
            ],
            [
              78.6474323,
              10.7937662
            ],
            [
              78.646574,
              10.7929652
            ],
            [
              78.6460161,
              10.7920799
            ],
            [
              78.6457157,
              10.7911525
            ],
            [
              78.6456728,
              10.7897613
            ],
            [
              78.6458445,
              10.7889604
            ],
            [
              78.644557,
              10.7886231
            ],
            [
              78.643527,
              10.7880329
            ],
            [
              78.6428404,
              10.7873584
            ],
            [
              78.6424541,
              10.7868104
            ],
            [
              78.642025,
              10.7857986
            ],
            [
              78.6418104,
              10.7849976
            ],
            [
              78.6416388,
              10.7836064
            ],
            [
              78.6416388,
              10.7778308
            ],
            [
              78.6413383,
              10.7777886
            ],
            [
              78.640523,
              10.7778729
            ],
            [
              78.6397076,
              10.7777886
            ],
            [
              78.6390638,
              10.77762
            ],
            [
              78.6382484,
              10.7772406
            ],
            [
              78.6358023,
              10.7752591
            ],
            [
              78.6349869,
              10.7744581
            ],
            [
              78.634429,
              10.7735728
            ],
            [
              78.6341715,
              10.7728561
            ],
            [
              78.6340857,
              10.7723501
            ],
            [
              78.6340857,
              10.7711275
            ],
            [
              78.6343431,
              10.7691039
            ],
            [
              78.6341286,
              10.7681764
            ],
            [
              78.6341715,
              10.7667851
            ],
            [
              78.6343002,
              10.7662792
            ],
            [
              78.6347723,
              10.7652673
            ],
            [
              78.6363173,
              10.7629064
            ],
            [
              78.6368322,
              10.761768
            ],
            [
              78.6368752,
              10.7601659
            ],
            [
              78.6376476,
              10.7563714
            ],
            [
              78.6376047,
              10.7554439
            ],
            [
              78.6372185,
              10.7547271
            ],
            [
              78.6364889,
              10.7538417
            ],
            [
              78.6360598,
              10.7527877
            ],
            [
              78.6359739,
              10.7522818
            ],
            [
              78.6359739,
              10.7512277
            ],
            [
              78.6361456,
              10.7504266
            ],
            [
              78.6364889,
              10.7496677
            ],
            [
              78.6368752,
              10.7491196
            ],
            [
              78.6377335,
              10.7483185
            ],
            [
              78.6388063,
              10.7477704
            ],
            [
              78.6388063,
              10.746632
            ],
            [
              78.6388922,
              10.7461261
            ],
            [
              78.6391497,
              10.7454093
            ],
            [
              78.6397076,
              10.7445239
            ],
            [
              78.6403942,
              10.7438493
            ],
            [
              78.6408234,
              10.7435541
            ],
            [
              78.64151,
              10.7432168
            ],
            [
              78.6423254,
              10.7429638
            ],
            [
              78.6422396,
              10.7423736
            ],
            [
              78.6422396,
              10.7413195
            ],
            [
              78.6423254,
              10.7408135
            ],
            [
              78.6425829,
              10.7400967
            ],
            [
              78.6431408,
              10.7392113
            ],
            [
              78.6438704,
              10.7384945
            ],
            [
              78.6445141,
              10.738115
            ],
            [
              78.6449432,
              10.7376934
            ],
            [
              78.6447287,
              10.7371453
            ],
            [
              78.6446428,
              10.7366393
            ],
            [
              78.6446857,
              10.73529
            ],
            [
              78.6449432,
              10.7345311
            ],
            [
              78.6451149,
              10.7336456
            ],
            [
              78.6457157,
              10.7325072
            ],
            [
              78.646574,
              10.7316217
            ],
            [
              78.647604,
              10.7308206
            ],
            [
              78.649621,
              10.729893
            ],
            [
              78.650651,
              10.7291762
            ],
            [
              78.6520243,
              10.7285437
            ],
            [
              78.6535263,
              10.7282907
            ],
            [
              78.6544704,
              10.7284172
            ],
            [
              78.6548567,
              10.728375
            ],
            [
              78.6559725,
              10.7279534
            ],
            [
              78.6586332,
              10.7273209
            ],
            [
              78.6594915,
              10.7268571
            ],
            [
              78.6605644,
              10.7265619
            ],
            [
              78.6613798,
              10.7264776
            ],
            [
              78.6641264,
              10.7265198
            ],
            [
              78.6652422,
              10.7268149
            ],
            [
              78.6667442,
              10.7275739
            ],
            [
              78.6708212,
              10.7285437
            ],
            [
              78.6717653,
              10.7289653
            ],
            [
              78.6721945,
              10.7292605
            ],
            [
              78.6730099,
              10.7301038
            ],
            [
              78.673439,
              10.7308206
            ],
            [
              78.6737394,
              10.7317482
            ],
            [
              78.6742544,
              10.7312844
            ],
            [
              78.674984,
              10.7309049
            ],
            [
              78.6755848,
              10.7299351
            ],
            [
              78.6762714,
              10.7292605
            ],
            [
              78.6767006,
              10.7289653
            ],
            [
              78.6776447,
              10.7285437
            ],
            [
              78.6789751,
              10.7283329
            ],
            [
              78.6809063,
              10.7285015
            ],
            [
              78.683095,
              10.7285015
            ],
            [
              78.6836958,
              10.7284172
            ],
            [
              78.6849403,
              10.7284594
            ],
            [
              78.6858416,
              10.7286702
            ],
            [
              78.686657,
              10.7290497
            ],
            [
              78.6870861,
              10.7293448
            ],
            [
              78.6879015,
              10.7301881
            ],
            [
              78.6885023,
              10.7313266
            ],
            [
              78.6888456,
              10.7330553
            ],
            [
              78.689146,
              10.733983
            ],
            [
              78.6893177,
              10.7342359
            ],
            [
              78.689661,
              10.7342359
            ],
            [
              78.6904764,
              10.7339408
            ],
            [
              78.6920214,
              10.7330553
            ],
            [
              78.6931372,
              10.7325494
            ],
            [
              78.6939096,
              10.7323807
            ],
            [
              78.6950684,
              10.7323807
            ],
            [
              78.696785,
              10.7320012
            ],
            [
              78.7001753,
              10.7320434
            ],
            [
              78.7042522,
              10.7317904
            ],
            [
              78.7065697,
              10.7320012
            ],
            [
              78.7078571,
              10.7323385
            ],
            [
              78.7085438,
              10.7325915
            ],
            [
              78.7096596,
              10.733224
            ],
            [
              78.7105179,
              10.7341094
            ],
            [
              78.7107754,
              10.7344889
            ],
            [
              78.7112045,
              10.7354587
            ],
            [
              78.711977,
              10.7358382
            ],
            [
              78.7127495,
              10.7363442
            ],
            [
              78.713522,
              10.7371031
            ],
            [
              78.7140369,
              10.7379042
            ],
            [
              78.7145519,
              10.7380729
            ],
            [
              78.7154102,
              10.7385367
            ],
            [
              78.7163973,
              10.7395064
            ],
            [
              78.717041,
              10.7407292
            ],
            [
              78.7176418,
              10.743006
            ],
            [
              78.7181139,
              10.7441022
            ],
            [
              78.719058,
              10.746885
            ],
            [
              78.7196159,
              10.7482342
            ],
            [
              78.7197018,
              10.7487401
            ],
            [
              78.7197018,
              10.7497942
            ],
            [
              78.7195301,
              10.7505953
            ],
            [
              78.7191868,
              10.7513542
            ],
            [
              78.7188005,
              10.7519023
            ],
            [
              78.718071,
              10.7526191
            ],
            [
              78.7174702,
              10.7529985
            ],
            [
              78.7172127,
              10.7535888
            ],
            [
              78.7168264,
              10.7541369
            ],
            [
              78.7161398,
              10.7548115
            ],
            [
              78.7157106,
              10.7551066
            ],
            [
              78.7148952,
              10.755486
            ],
            [
              78.7142515,
              10.7556547
            ],
            [
              78.7134361,
              10.755739
            ],
            [
              78.7126207,
              10.7556547
            ],
            [
              78.711977,
              10.755486
            ],
            [
              78.7111616,
              10.7551066
            ],
            [
              78.7107325,
              10.7548115
            ],
            [
              78.7100458,
              10.7541369
            ],
            [
              78.7097454,
              10.7537153
            ],
            [
              78.709445,
              10.7537153
            ],
            [
              78.7098312,
              10.7548536
            ],
            [
              78.7098742,
              10.7562028
            ],
            [
              78.7097883,
              10.7567087
            ],
            [
              78.7095308,
              10.7574255
            ],
            [
              78.7091017,
              10.7581422
            ],
            [
              78.7088013,
              10.7584795
            ],
            [
              78.70893,
              10.7585217
            ],
            [
              78.7093163,
              10.7583952
            ],
            [
              78.7101316,
              10.7583109
            ],
            [
              78.710947,
              10.7583952
            ],
            [
              78.7115908,
              10.7585638
            ],
            [
              78.7124062,
              10.7589433
            ],
            [
              78.7128353,
              10.7592384
            ],
            [
              78.713522,
              10.759913
            ],
            [
              78.7139082,
              10.7604611
            ],
            [
              78.7143373,
              10.7615151
            ],
            [
              78.7145948,
              10.7630328
            ],
            [
              78.7151527,
              10.7653938
            ],
            [
              78.7156248,
              10.7668273
            ],
            [
              78.7164402,
              10.7685558
            ],
            [
              78.7167406,
              10.7694833
            ],
            [
              78.7167406,
              10.7711275
            ],
            [
              78.7166119,
              10.7716334
            ],
            [
              78.7162256,
              10.7724345
            ],
            [
              78.7171268,
              10.7728561
            ],
            [
              78.7181139,
              10.7736571
            ],
            [
              78.7208176,
              10.7742473
            ],
            [
              78.7227917,
              10.7747954
            ],
            [
              78.72365,
              10.7752591
            ],
            [
              78.7245941,
              10.7761023
            ],
            [
              78.7261391,
              10.7759758
            ],
            [
              78.7280273,
              10.7755964
            ],
            [
              78.7289286,
              10.7751748
            ],
            [
              78.7295294,
              10.7750062
            ],
            [
              78.7300014,
              10.7746689
            ],
            [
              78.7309456,
              10.7742051
            ],
            [
              78.7337351,
              10.7733198
            ],
            [
              78.7350655,
              10.7731933
            ],
            [
              78.7363958,
              10.7734041
            ],
            [
              78.73734,
              10.7738257
            ],
            [
              78.7377691,
              10.7741208
            ],
            [
              78.7384558,
              10.7747954
            ],
            [
              78.738842,
              10.7753434
            ],
            [
              78.7391853,
              10.7761023
            ],
            [
              78.7393999,
              10.7772406
            ],
            [
              78.739872,
              10.7775778
            ],
            [
              78.7405586,
              10.7782524
            ],
            [
              78.7411165,
              10.7791377
            ],
            [
              78.7414169,
              10.7800652
            ],
            [
              78.7415028,
              10.781625
            ],
            [
              78.7422752,
              10.7818779
            ],
            [
              78.744421,
              10.7817936
            ],
            [
              78.7450218,
              10.7818779
            ],
            [
              78.7486696,
              10.7820044
            ],
            [
              78.7491417,
              10.7818779
            ],
            [
              78.75,
              10.7810769
            ],
            [
              78.7510729,
              10.7805289
            ],
            [
              78.7521029,
              10.7802759
            ],
            [
              78.753562,
              10.7802759
            ],
            [
              78.7548065,
              10.7806132
            ],
            [
              78.7558365,
              10.7812034
            ],
            [
              78.7565231,
              10.7818779
            ],
            [
              78.7569094,
              10.782426
            ],
            [
              78.7572527,
              10.7831848
            ],
            [
              78.7574244,
              10.7839858
            ],
            [
              78.7574244,
              10.7855035
            ],
            [
              78.7573385,
              10.7862623
            ],
            [
              78.7574673,
              10.7868104
            ],
            [
              78.7574673,
              10.7879486
            ],
            [
              78.7573814,
              10.7884545
            ],
            [
              78.7569523,
              10.7895084
            ],
            [
              78.756566,
              10.7900564
            ],
            [
              78.7558794,
              10.7907309
            ],
            [
              78.7548494,
              10.7913211
            ],
            [
              78.7537336,
              10.7916162
            ],
            [
              78.7526178,
              10.7916162
            ],
            [
              78.7519741,
              10.7914476
            ],
            [
              78.7513733,
              10.7914054
            ],
            [
              78.7492704,
              10.7915319
            ],
            [
              78.7480259,
              10.7913633
            ],
            [
              78.7419319,
              10.791827
            ],
            [
              78.7415028,
              10.7924594
            ],
            [
              78.741374,
              10.7930917
            ],
            [
              78.7410307,
              10.7938505
            ],
            [
              78.7406445,
              10.7943985
            ],
            [
              78.7399578,
              10.795073
            ],
            [
              78.7389278,
              10.7956632
            ],
            [
              78.7376404,
              10.7960005
            ],
            [
              78.7375546,
              10.7960848
            ],
            [
              78.7377262,
              10.79697
            ],
            [
              78.7377262,
              10.7979818
            ],
            [
              78.7375546,
              10.7987827
            ],
            [
              78.7369537,
              10.7999209
            ],
            [
              78.7357521,
              10.8010591
            ],
            [
              78.7354946,
              10.8016493
            ],
            [
              78.7351084,
              10.8021973
            ],
            [
              78.7343788,
              10.8029139
            ],
            [
              78.7333488,
              10.8035041
            ],
            [
              78.7324905,
              10.803757
            ],
            [
              78.731761,
              10.8037992
            ],
            [
              78.7315035,
              10.8044315
            ],
            [
              78.7310743,
              10.8051481
            ],
            [
              78.7300014,
              10.806202
            ],
            [
              78.7301302,
              10.8063284
            ],
            [
              78.730731,
              10.8063706
            ],
            [
              78.7313747,
              10.8065392
            ],
            [
              78.7321901,
              10.8069186
            ],
            [
              78.7326193,
              10.8072137
            ],
            [
              78.7333059,
              10.8078881
            ],
            [
              78.7336922,
              10.8084361
            ],
            [
              78.7340355,
              10.8091949
            ],
            [
              78.7342072,
              10.8099958
            ],
            [
              78.7342072,
              10.8110075
            ],
            [
              78.7340355,
              10.8118085
            ],
            [
              78.7336922,
              10.8125672
            ],
            [
              78.7330484,
              10.8133681
            ],
            [
              78.7330914,
              10.8156866
            ],
            [
              78.732748,
              10.8173305
            ],
            [
              78.7325764,
              10.8193117
            ],
            [
              78.7321043,
              10.820492
            ],
            [
              78.7317181,
              10.8210399
            ],
            [
              78.7309885,
              10.8217565
            ],
            [
              78.7299585,
              10.8223466
            ],
            [
              78.7286711,
              10.822726
            ],
            [
              78.7275124,
              10.8233161
            ],
            [
              78.7250662,
              10.8257609
            ],
            [
              78.7240362,
              10.8263511
            ],
            [
              78.7231779,
              10.826604
            ],
            [
              78.7223196,
              10.8266883
            ],
            [
              78.7209463,
              10.8264775
            ],
            [
              78.7198305,
              10.8265197
            ],
            [
              78.7180281,
              10.8263932
            ],
            [
              78.7173843,
              10.8262246
            ],
            [
              78.7165689,
              10.8258452
            ],
            [
              78.7147236,
              10.8245385
            ],
            [
              78.7140799,
              10.8250444
            ],
            [
              78.713479,
              10.8253394
            ],
            [
              78.7126207,
              10.8255923
            ],
            [
              78.7118912,
              10.8256766
            ],
            [
              78.712492,
              10.8264775
            ],
            [
              78.7128353,
              10.8272362
            ],
            [
              78.7129641,
              10.8277421
            ],
            [
              78.7129641,
              10.829386
            ],
            [
              78.7126637,
              10.8303133
            ],
            [
              78.7123203,
              10.8308612
            ],
            [
              78.7123203,
              10.8311563
            ],
            [
              78.7132645,
              10.8320836
            ],
            [
              78.7138653,
              10.8332217
            ],
            [
              78.7140369,
              10.8340225
            ],
            [
              78.7140369,
              10.8350763
            ],
            [
              78.7138653,
              10.8358772
            ],
            [
              78.7145519,
              10.8365516
            ],
            [
              78.7151098,
              10.8374367
            ],
            [
              78.7154102,
              10.838364
            ],
            [
              78.7154961,
              10.8394177
            ],
            [
              78.7162256,
              10.8386591
            ],
            [
              78.7166548,
              10.838364
            ],
            [
              78.7175989,
              10.8379425
            ],
            [
              78.7189293,
              10.8377318
            ],
            [
              78.7263966,
              10.8379004
            ],
            [
              78.7275124,
              10.8381111
            ],
            [
              78.7282419,
              10.8384062
            ],
            [
              78.7292719,
              10.8382376
            ],
            [
              78.7308598,
              10.8383219
            ],
            [
              78.7365675,
              10.8389962
            ],
            [
              78.7386703,
              10.8391227
            ],
            [
              78.7397003,
              10.8393334
            ],
            [
              78.7399578,
              10.8394599
            ],
            [
              78.7406445,
              10.839502
            ],
            [
              78.7434769,
              10.8393334
            ],
            [
              78.7462664,
              10.8389962
            ],
            [
              78.7472105,
              10.8390805
            ],
            [
              78.7480688,
              10.8393334
            ],
            [
              78.7490988,
              10.8399235
            ],
            [
              78.7497854,
              10.8405979
            ],
            [
              78.7503433,
              10.8414831
            ],
            [
              78.7506008,
              10.8421996
            ],
            [
              78.7506866,
              10.8427054
            ],
            [
              78.7506866,
              10.8438013
            ],
            [
              78.7504292,
              10.8447286
            ],
            [
              78.7514162,
              10.8451922
            ],
            [
              78.7518454,
              10.8454872
            ],
            [
              78.752532,
              10.8461616
            ],
            [
              78.7530899,
              10.8470467
            ],
            [
              78.7533903,
              10.847974
            ],
            [
              78.7534761,
              10.849955
            ],
            [
              78.753562,
              10.8502922
            ],
            [
              78.753562,
              10.8514302
            ],
            [
              78.7533903,
              10.852231
            ],
            [
              78.7527895,
              10.853369
            ],
            [
              78.7519741,
              10.8542119
            ],
            [
              78.751545,
              10.8545069
            ],
            [
              78.7504292,
              10.8550127
            ],
            [
              78.7387133,
              10.858806
            ],
            [
              78.7374687,
              10.859101
            ],
            [
              78.733263,
              10.8603232
            ],
            [
              78.7324476,
              10.8604075
            ],
            [
              78.7316322,
              10.8603232
            ],
            [
              78.7309885,
              10.8601547
            ],
            [
              78.7301731,
              10.8597753
            ],
            [
              78.729744,
              10.8594803
            ],
            [
              78.7290573,
              10.858806
            ],
            [
              78.7286711,
              10.858258
            ],
            [
              78.7282419,
              10.8572465
            ],
            [
              78.7278986,
              10.8574573
            ],
            [
              78.7274265,
              10.8583423
            ],
            [
              78.7266111,
              10.8591853
            ],
            [
              78.726182,
              10.8594803
            ],
            [
              78.7252378,
              10.8599018
            ],
            [
              78.7244654,
              10.8600704
            ],
            [
              78.7233067,
              10.8600704
            ],
            [
              78.7224054,
              10.8598596
            ],
            [
              78.7215471,
              10.8594382
            ],
            [
              78.7203884,
              10.8597753
            ],
            [
              78.7195301,
              10.8598596
            ],
            [
              78.7181997,
              10.8596489
            ],
            [
              78.7169981,
              10.8590588
            ],
            [
              78.716054,
              10.8592696
            ],
            [
              78.7148523,
              10.8592696
            ],
            [
              78.7137365,
              10.8589745
            ],
            [
              78.7128353,
              10.8584688
            ],
            [
              78.711462,
              10.8586795
            ],
            [
              78.7101316,
              10.8584688
            ],
            [
              78.7090588,
              10.8580052
            ],
            [
              78.7086296,
              10.8577101
            ],
            [
              78.707943,
              10.8570358
            ],
            [
              78.7073851,
              10.8561085
            ],
            [
              78.7066984,
              10.8557292
            ],
            [
              78.7062263,
              10.8564036
            ],
            [
              78.7054968,
              10.8571201
            ],
            [
              78.7050676,
              10.8574151
            ],
            [
              78.7041235,
              10.8578366
            ],
            [
              78.702836,
              10.8580473
            ],
            [
              78.7033939,
              10.8587638
            ],
            [
              78.7037373,
              10.8595225
            ],
            [
              78.7039089,
              10.8603232
            ],
            [
              78.7039089,
              10.8613348
            ],
            [
              78.7037373,
              10.8621355
            ],
            [
              78.7033939,
              10.8628942
            ],
            [
              78.7030077,
              10.8634421
            ],
            [
              78.7021065,
              10.864285
            ],
            [
              78.7006474,
              10.8650015
            ],
            [
              78.6994028,
              10.8653387
            ],
            [
              78.6961412,
              10.8664766
            ],
            [
              78.6954117,
              10.8668138
            ],
            [
              78.6945105,
              10.8670245
            ],
            [
              78.6919785,
              10.8678674
            ],
            [
              78.6894464,
              10.8688368
            ],
            [
              78.688674,
              10.8690053
            ],
            [
              78.6879015,
              10.8690053
            ],
            [
              78.6874294,
              10.8691318
            ],
            [
              78.6862707,
              10.8691318
            ],
            [
              78.6862278,
              10.8691739
            ],
            [
              78.6868715,
              10.8698061
            ],
            [
              78.6872578,
              10.870354
            ],
            [
              78.6876011,
              10.8711126
            ],
            [
              78.6877728,
              10.8719134
            ],
            [
              78.6877728,
              10.8729248
            ],
            [
              78.6876011,
              10.8737256
            ],
            [
              78.6870003,
              10.8748635
            ],
            [
              78.6857128,
              10.87617
            ],
            [
              78.6852837,
              10.876465
            ],
            [
              78.6844683,
              10.8768443
            ],
            [
              78.6836529,
              10.877055
            ],
            [
              78.6733103,
              10.8785722
            ],
            [
              78.6659288,
              10.879963
            ],
            [
              78.6631823,
              10.8806373
            ],
            [
              78.6619377,
              10.880848
            ],
            [
              78.6586332,
              10.8812694
            ],
            [
              78.6578608,
              10.8812273
            ],
            [
              78.6570883,
              10.8810587
            ]
          ]
        ]
      }
    }
  ]
}