{
  "type": "FeatureCollection",
  "bbox": [
    138.9440918,
    35.5478707,
    139.9163818,
    35.9068493
  ],
  "features": [
    {
      "type": "Feature",
      "bbox": [
        138.9440918,
        35.5478707,
        139.9163818,
        35.9068493
      ],
      "properties": {
        "name": "Tokyo",
        "source": "Google Maps selected-place raster outline",
        "zoom": 9,
        "vertices": 71,
        "approx_area_km2": 1988.175,
        "closed_ring": true,
        "extracted_at": "2026-08-25T13:58:48Z",
        "mode": "fast",
        "warning": "Reverse-traced from raster tiles; accuracy is limited by Web Mercator pixel resolution at the captured zoom."
      },
      "geometry": {
        "type": "Polygon",
        "coordinates": [
          [
            [
              138.9440918,
              35.8601178
            ],
            [
              138.9523315,
              35.7910828
            ],
            [
              138.9660645,
              35.775486
            ],
            [
              138.9743042,
              35.7509704
            ],
            [
              138.9880371,
              35.7398245
            ],
            [
              138.9990234,
              35.7197579
            ],
            [
              139.0264893,
              35.6974558
            ],
            [
              139.0621948,
              35.6818406
            ],
            [
              139.0924072,
              35.6773786
            ],
            [
              139.1143799,
              35.6639909
            ],
            [
              139.1775513,
              35.6394411
            ],
            [
              139.1940308,
              35.6372089
            ],
            [
              139.2022705,
              35.6238145
            ],
            [
              139.2242432,
              35.6059519
            ],
            [
              139.2407227,
              35.5992523
            ],
            [
              139.3093872,
              35.5903188
            ],
            [
              139.317627,
              35.5925522
            ],
            [
              139.4000244,
              35.5702146
            ],
            [
              139.4439697,
              35.5813842
            ],
            [
              139.4714355,
              35.6081849
            ],
            [
              139.5043945,
              35.6104179
            ],
            [
              139.5318604,
              35.6260471
            ],
            [
              139.5730591,
              35.6059519
            ],
            [
              139.6060181,
              35.6014856
            ],
            [
              139.6856689,
              35.5523399
            ],
            [
              139.7103882,
              35.5478707
            ],
            [
              139.737854,
              35.5523399
            ],
            [
              139.7543335,
              35.5590434
            ],
            [
              139.7735596,
              35.5746826
            ],
            [
              139.7817993,
              35.5903188
            ],
            [
              139.7817993,
              35.6171165
            ],
            [
              139.770813,
              35.6372089
            ],
            [
              139.8504639,
              35.6595279
            ],
            [
              139.8669434,
              35.6729163
            ],
            [
              139.888916,
              35.6796096
            ],
            [
              139.9081421,
              35.6952253
            ],
            [
              139.9163818,
              35.7108378
            ],
            [
              139.9163818,
              35.7442831
            ],
            [
              139.8944092,
              35.7843988
            ],
            [
              139.8724365,
              35.8022216
            ],
            [
              139.855957,
              35.808904
            ],
            [
              139.8339844,
              35.8111314
            ],
            [
              139.8147583,
              35.8200403
            ],
            [
              139.7900391,
              35.8244943
            ],
            [
              139.7625732,
              35.8200403
            ],
            [
              139.7323608,
              35.8022216
            ],
            [
              139.6801758,
              35.8178132
            ],
            [
              139.6472168,
              35.8133587
            ],
            [
              139.6307373,
              35.8066766
            ],
            [
              139.6060181,
              35.7866269
            ],
            [
              139.5840454,
              35.7866269
            ],
            [
              139.5510864,
              35.775486
            ],
            [
              139.5126343,
              35.7910828
            ],
            [
              139.487915,
              35.7955385
            ],
            [
              139.4274902,
              35.7821707
            ],
            [
              139.3972778,
              35.7821707
            ],
            [
              139.3753052,
              35.7999939
            ],
            [
              139.3423462,
              35.808904
            ],
            [
              139.3313599,
              35.8267213
            ],
            [
              139.3093872,
              35.8445345
            ],
            [
              139.2929077,
              35.8512134
            ],
            [
              139.2681885,
              35.8556657
            ],
            [
              139.2352295,
              35.8534396
            ],
            [
              139.2077637,
              35.8601178
            ],
            [
              139.1912842,
              35.8578918
            ],
            [
              139.1500854,
              35.8779235
            ],
            [
              139.067688,
              35.8912752
            ],
            [
              139.0457153,
              35.9023999
            ],
            [
              139.0209961,
              35.9068493
            ],
            [
              138.9743042,
              35.8935003
            ],
            [
              138.9523315,
              35.875698
            ],
            [
              138.9440918,
              35.8601178
            ]
          ]
        ]
      }
    }
  ]
}